City,Region,ZipCode,Country
DPO AA 52885,Unknown Region,52885,United States
Kendrastad,NM,41905,United States
South Joan,CA,36994,United States
New Jonmouth,MI,11232,United States
Lake Angelaville,IA,22132,United States
Kington,RI,43226,United States
New Amandaville,KY,10367,United States
Simmonsport,OR,54850,United States
Lake Elizabeth,NV,89632,United States
East Samuelfort,IA,86217,United States
Port Phyllisbury,AZ,37656,United States
North Angelchester,OH,27956,United States
Webbport,NV,97742,United States
Brownborough,MI,03730,United States
Lopezberg,ID,62117,United States
Arielstad,RI,10698,United States
DPO AE 68675,Unknown Region,68675,United States
Shaneton,WA,53067,United States
South Zachary,CA,35703,United States
Lake Melissamouth,ME,07109,United States
East Samantha,NJ,43015,United States
FPO AA 43350,Unknown Region,43350,United States
Nelsonbury,OR,88386,United States
Box 3145,APO,41865,United States
FPO AE 68023,Unknown Region,68023,United States
South Johnny,TX,56869,United States
Mitchellton,DE,03518,United States
New Christopher,OR,56711,United States
FPO AP 62609,Unknown Region,62609,United States
Anthonyburgh,TX,31850,United States
Davidside,MS,40959,United States
West Leslieton,VA,29627,United States
Gravesshire,KS,23733,United States
Vincenthaven,KY,39077,United States
New Andrewtown,WI,47884,United States
Wardberg,AZ,47250,United States
New John,MA,32091,United States
Port Steven,HI,94709,United States
Sherryport,NM,95661,United States
Jefferyburgh,NH,55974,United States
Walkerfort,CT,02059,United States
Danamouth,MD,03004,United States
Patrickfurt,MO,12839,United States
East Kaylaland,VA,84346,United States
West Kenneth,TX,09552,United States
Carrollborough,VA,01584,United States
New Darius,NE,23008,United States
Box 2867,APO,25659,United States
Cathyborough,CT,16618,United States
Susanberg,IL,19189,United States
Lake Heather,DC,11540,United States
Feliciaport,WI,91232,United States
East Michael,NH,47611,United States
Darrellport,NV,68409,United States
New Dawn,ME,54019,United States
South Christopher,AL,75487,United States
Box 7493,APO,06985,United States
Brownshire,OH,13610,United States
New Stephen,ID,07065,United States
Port Tracy,PA,55421,United States
North Stephaniefort,LA,24321,United States
Toddchester,MT,48200,United States
Lake Jacob,VA,60909,United States
Freemanberg,VA,79282,United States
Box 0262,APO,33891,United States
Port Joanshire,AR,02784,United States
Williamhaven,CA,42671,United States
Watkinshaven,CO,31956,United States
Lake Michael,TX,08175,United States
Tylerton,LA,13484,United States
East Davidstad,IL,27834,United States
Veronicaview,ME,13836,United States
FPO AP 23827,Unknown Region,23827,United States
Port Pamelaberg,WI,42707,United States
Moyerville,IA,99727,United States
New Donald,UT,64167,United States
Port Sophia,FL,66079,United States
Kaufmanchester,WA,57854,United States
Jonesside,WV,04028,United States
Allenville,AZ,28604,United States
North Sara,IN,44066,United States
West Mariahshire,OH,89318,United States
South Anthonyland,AZ,97331,United States
Martinchester,DC,53296,United States
West Austin,OR,07530,United States
Jessicaland,WA,84877,United States
Amychester,ID,78124,United States
Lake Rebeccamouth,IL,21190,United States
Joshuaton,PA,26406,United States
Davischester,NH,91912,United States
Lake Matthew,MN,25769,United States
Port Brandon,OR,99727,United States
FPO AE 57630,Unknown Region,57630,United States
Englishfort,MS,94622,United States
East Beverlyland,NJ,26846,United States
Port Tanyafort,ME,64484,United States
Port Scott,LA,10913,United States
Lauraside,NC,64597,United States
DPO AP 34390,Unknown Region,34390,United States
West Taylorview,SD,00599,United States
Lake Kelsey,CT,05184,United States
West Brandon,IL,64898,United States
New Tiffanymouth,NC,49701,United States
New Michaelmouth,CT,59430,United States
New Brandonhaven,TN,87795,United States
DPO AP 39666,Unknown Region,39666,United States
East Thomasport,AR,82437,United States
Stevenburgh,MI,40699,United States
Caitlynchester,ME,93221,United States
Thompsonborough,ND,34331,United States
Jamesmouth,KY,71039,United States
North Kathleenfurt,WY,28952,United States
Katiestad,ND,55414,United States
North John,MD,17951,United States
Box 4307,APO,70817,United States
Antonioport,NY,21262,United States
South Karen,AR,84083,United States
Taylorton,DE,59859,United States
North Glennbury,MS,73114,United States
DPO AP 32195,Unknown Region,32195,United States
Box 9230,APO,80803,United States
North Elizabeth,AL,93156,United States
Donnaport,AK,83110,United States
North Renee,CT,46842,United States
Jonesstad,WA,67364,United States
Box 4569,APO,76034,United States
Michaelmouth,OH,96658,United States
Tuckerhaven,MI,32439,United States
Larryborough,HI,04023,United States
Martinfurt,WV,41050,United States
Laurastad,CO,91286,United States
East Dan,FL,87346,United States
West Caroline,MT,05798,United States
North Markbury,OH,68534,United States
South Michelle,ME,56309,United States
Victoriaburgh,HI,95385,United States
West Samanthaton,NH,54494,United States
Sarahstad,ID,69224,United States
Edwardview,ID,89227,United States
Kelseymouth,WY,94090,United States
Lauraport,MA,58010,United States
South Andrewberg,CO,14115,United States
Markmouth,OK,42792,United States
Joshuaberg,ID,59119,United States
New Kayla,KS,56265,United States
Shawntown,ND,40476,United States
North Jacobmouth,SD,79570,United States
North Jessicaburgh,NC,92797,United States
Campbellbury,WY,28058,United States
West Seth,LA,29713,United States
Danielleshire,AK,47626,United States
South Scottborough,TX,57069,United States
North Amberchester,ID,03205,United States
DPO AP 84053,Unknown Region,84053,United States
Rodriguezborough,CA,43911,United States
Tylerborough,FL,28743,United States
Lake Meredithtown,ME,69108,United States
Morrisonborough,NJ,21731,United States
Billyfurt,FL,62809,United States
New Jenniferland,GA,11100,United States
Hoffmantown,AK,24918,United States
FPO AA 19758,Unknown Region,19758,United States
Lake Andrea,CO,14373,United States
South Stephanieton,AR,99382,United States
New Robert,SC,42709,United States
South Sarah,WV,42523,United States
Larryport,ID,73655,United States
Box 5542,APO,28715,United States
Lake Deniseberg,CT,72333,United States
FPO AE 38296,Unknown Region,38296,United States
Davidport,KS,45772,United States
Lake Nancybury,AR,91137,United States
Stephanieland,CT,32592,United States
Box 8027,APO,76138,United States
North Jesse,NH,80479,United States
Jamesfurt,CA,71042,United States
North Larryton,IN,30526,United States
FPO AE 56089,Unknown Region,56089,United States
North John,NJ,81278,United States
Jamesville,MO,07109,United States
DPO AA 81993,Unknown Region,81993,United States
Box 6632,APO,99503,United States
DPO AP 70613,Unknown Region,70613,United States
Lake Jeromechester,NM,69030,United States
Port Nathaniel,OK,46193,United States
FPO AP 83948,Unknown Region,83948,United States
Rebekahberg,MA,55531,United States
New Timothy,IN,29397,United States
North Justin,OR,29317,United States
New Joel,LA,54880,United States
West Karenborough,FL,94029,United States
East Howardside,DE,55663,United States
North Benjaminton,KS,34968,United States
Whiteburgh,AL,90844,United States
Jerryfurt,AK,12681,United States
Snydertown,MI,44613,United States
Karenmouth,CA,70607,United States
New Brianchester,AK,02524,United States
Brianhaven,MN,79824,United States
New Carlville,SC,76401,United States
North James,ID,99650,United States
South Joseph,OK,14693,United States
Lake Eric,DE,75081,United States
Mossview,VT,20783,United States
West Alyssatown,WV,95649,United States
East Shelbyshire,CA,57547,United States
DPO AA 79436,Unknown Region,79436,United States
Hernandezport,SC,88936,United States
East Peter,DC,04777,United States
South Brandon,WI,59753,United States
Erikaside,IN,87149,United States
Phyllisport,MD,74260,United States
Hardyton,CT,63174,United States
Williamstad,TX,05112,United States
Trevorton,NV,72330,United States
DPO AP 23168,Unknown Region,23168,United States
Pollardton,ME,74324,United States
Hensonberg,MN,76256,United States
Rachelside,FL,92087,United States
West Dawn,VA,53515,United States
Port Stephenville,VT,08912,United States
Laurenfort,MN,76667,United States
Angelfort,CT,82404,United States
Alvaradomouth,VT,47255,United States
Odomchester,FL,61655,United States
East Jasonview,DC,60099,United States
Lake Dawnbury,WI,56552,United States
Andreberg,KY,58899,United States
Rodriguezmouth,OK,35224,United States
Jennyport,WI,62350,United States
Robinmouth,RI,47850,United States
South Marytown,KS,88020,United States
East Ericville,NC,73067,United States
Port Charlesstad,WA,08690,United States
DPO AP 90974,Unknown Region,90974,United States
FPO AA 55503,Unknown Region,55503,United States
Box 6444,APO,91102,United States
East Jasmine,WI,23281,United States
Box 6511,APO,25257,United States
New Shelleystad,NH,95618,United States
Pottsstad,AL,71796,United States
North Joyce,IA,75053,United States
Jamesland,ME,10163,United States
Harrellburgh,ND,17858,United States
Box 1822,APO,57453,United States
Rebeccabury,MO,94808,United States
Shawview,IN,12140,United States
Yangtown,WI,54002,United States
Marybury,SD,89897,United States
Joannville,KY,84915,United States
Lake Samuelhaven,IL,68393,United States
Vincentmouth,NJ,34736,United States
North Jenniferborough,MO,30631,United States
Mariabury,AK,78800,United States
Port Anthonyborough,NV,59815,United States
Garyberg,WI,89923,United States
FPO AA 44316,Unknown Region,44316,United States
Lake Bradley,NE,80088,United States
Port Kevinfort,ND,36654,United States
Lake Kyletown,TN,17061,United States
South Gabriela,IN,56257,United States
Box 7544,APO,29618,United States
Caldwellville,MI,29929,United States
Mcphersonberg,MA,76274,United States
Morgantown,SC,99689,United States
Richmondside,ID,41661,United States
Port Jamesburgh,LA,76969,United States
Port Craig,MD,84074,United States
DPO AE 44663,Unknown Region,44663,United States
Box 3925,APO,48790,United States
Spencerfort,CA,46270,United States
Williamside,NM,65272,United States
FPO AP 26926,Unknown Region,26926,United States
Stephaniebury,KS,80842,United States
Josephside,AL,73574,United States
Michaelton,WI,22367,United States
Susanberg,AR,45764,United States
Kellychester,RI,35996,United States
Port William,UT,72080,United States
South Anthonyburgh,NH,11321,United States
Curtistown,ND,25997,United States
East Dannystad,DC,55810,United States
Codyfurt,MS,41134,United States
South Douglas,AL,97137,United States
Kylechester,CA,64547,United States
West Seantown,OH,77714,United States
North Ricky,NJ,62103,United States
FPO AP 36824,Unknown Region,36824,United States
East Charlesmouth,AZ,08908,United States
Jacquelinefort,CA,31626,United States
Lake Chelseyland,ME,55758,United States
Port Alexanderhaven,WA,64198,United States
South Tammychester,NJ,44864,United States
Mannborough,KS,36108,United States
Kevinshire,NM,91439,United States
Louisland,NH,71461,United States
Hannahshire,NE,35094,United States
Port Courtneystad,RI,91828,United States
West Renee,MI,36156,United States
Carterton,AZ,25993,United States
West Christopherberg,UT,56480,United States
Jamesborough,WI,46559,United States
Lake Crystal,VA,92966,United States
Amymouth,MS,23349,United States
Stewartton,NJ,15756,United States
East Debratown,WY,75162,United States
New Benjamin,MD,79345,United States
Whiteland,RI,91361,United States
Julieshire,TX,94064,United States
Port Jeffrey,DE,58719,United States
Lake Robertfort,CO,52888,United States
New Christopherburgh,DE,75784,United States
Monroefurt,KS,70689,United States
Westtown,OR,08537,United States
West Derrick,NH,86212,United States
South Anthony,OK,63912,United States
North Michael,MO,69563,United States
South Stevenberg,OH,01208,United States
New Jeffreyborough,MN,93352,United States
FPO AE 88301,Unknown Region,88301,United States
North Kiara,NE,03138,United States
Claytonberg,ME,56670,United States
Barajaston,OH,10116,United States
New April,AZ,19817,United States
Port Peggystad,RI,08815,United States
Kyleside,MI,97596,United States
Mendozaton,ME,22525,United States
Samuelton,NH,64525,United States
FPO AP 86138,Unknown Region,86138,United States
Box 4041,APO,57691,United States
North Bethview,VA,34808,United States
North Donna,WI,70637,United States
Stephenberg,MD,79939,United States
East Jacobborough,DC,80223,United States
North Andrew,MA,70239,United States
New Benjaminbury,SD,12693,United States
Hahnton,FL,59133,United States
Port Georgeville,DC,51706,United States
Adkinsfort,CT,32748,United States
West Brent,SD,83466,United States
New Courtneymouth,NV,91175,United States
Smithside,LA,01385,United States
New Josephside,DC,55038,United States
Lake Joshua,SC,11834,United States
East Annamouth,VA,17811,United States
Joshuaburgh,LA,13914,United States
Donnafurt,VT,13871,United States
Lawrencehaven,MD,69348,United States
DPO AA 21487,Unknown Region,21487,United States
Box 0258,APO,23659,United States
Port Tyler,ID,54132,United States
Box 8019,APO,63409,United States
Box 9329,APO,99656,United States
FPO AE 39747,Unknown Region,39747,United States
Scottview,RI,37264,United States
Victoriaborough,NM,40738,United States
Jesustown,SD,42397,United States
Nicholasshire,RI,90186,United States
Brittanystad,DC,04565,United States
Lake Donald,MN,22404,United States
Wolffurt,FL,46518,United States
Clarkchester,KY,73995,United States
Robinsonland,MN,23137,United States
East Brandon,TN,92203,United States
New Peggy,NJ,20346,United States
North Troychester,CO,22247,United States
North Laurenshire,NV,31561,United States
Russellmouth,NH,80529,United States
Sarahland,MS,40426,United States
Transhire,ID,79646,United States
Lake Meredithbury,ND,06126,United States
DPO AP 83806,Unknown Region,83806,United States
Jonesview,LA,62887,United States
South Annetteland,MO,23751,United States
Jamesstad,LA,48927,United States
North Terri,OR,08748,United States
Nicholastown,TX,97662,United States
North Sandychester,HI,21926,United States
FPO AA 84883,Unknown Region,84883,United States
Port Allison,GA,54405,United States
Hayesland,NV,17322,United States
Tracychester,VT,75871,United States
North Tony,WI,02587,United States
New Carolyn,IN,73615,United States
North Kyletown,KY,60730,United States
Benjamintown,CT,45301,United States
Box 4581,APO,08314,United States
Briggsfurt,WY,77250,United States
FPO AA 69438,Unknown Region,69438,United States
Lucasland,NJ,11640,United States
Sharonchester,IA,26979,United States
East Lisaville,OK,30688,United States
Blackburnchester,KY,89113,United States
West Jeffrey,ND,86737,United States
Lake Natashafort,SC,04973,United States
West Catherine,AL,75010,United States
New Angelaberg,WV,70844,United States
Fishermouth,CO,70920,United States
Allenside,NH,69079,United States
Chelseahaven,NE,34527,United States
Brandonchester,NV,75412,United States
Marthatown,TN,57357,United States
Brycemouth,IL,16106,United States
Houstonfort,KS,51241,United States
Stevenhaven,TX,80220,United States
Port Ricardo,TN,17103,United States
West David,OR,08439,United States
South Linda,DC,02052,United States
Darleneport,PA,36172,United States
Fitzgeraldton,WV,56391,United States
Riggsfort,OH,70750,United States
Port Melissafurt,ND,34082,United States
Cindyville,ME,97873,United States
North Michael,NH,40809,United States
South David,IN,21853,United States
Box 2020,APO,54714,United States
South Amanda,ND,49270,United States
New Yolanda,MD,88193,United States
South Timothytown,DC,14707,United States
Simschester,ME,92816,United States
Port James,FL,72665,United States
Lutzmouth,NC,94673,United States
East Jeremy,CT,85265,United States
Seantown,CT,26773,United States
East Debbiechester,MD,79548,United States
FPO AA 02094,Unknown Region,02094,United States
North Belindachester,AK,83103,United States
Port Charleschester,IL,18473,United States
New Anna,CT,55466,United States
DPO AP 79199,Unknown Region,79199,United States
Ashleyville,AK,70405,United States
Charleschester,HI,33935,United States
Barbaraborough,IA,86197,United States
DPO AE 04382,Unknown Region,04382,United States
Lake Jacqueline,PA,26927,United States
Port Dianeside,MS,03039,United States
Johnview,NC,61310,United States
New Dustinland,MS,53286,United States
East Paul,SD,54190,United States
Lake Whitney,HI,24392,United States
Millsside,ND,86452,United States
South Veronica,MD,12008,United States
Lake Jamiemouth,AK,72105,United States
Turnermouth,OK,33105,United States
South Cheyenne,AL,84926,United States
Port Garyberg,NM,96634,United States
Port Maria,ME,56282,United States
Lake Sean,MD,67496,United States
Campbellside,CO,34192,United States
South Evelynfort,MA,15098,United States
Humphreyville,AZ,88247,United States
Box 2733,APO,68082,United States
Kevinborough,WA,03083,United States
East Angela,NM,39868,United States
Jacobsside,CO,61928,United States
Hollyton,OK,38357,United States
Lake Michael,TN,61960,United States
West Reginaport,MO,59212,United States
North Calvin,NY,31203,United States
Katherineview,FL,22977,United States
Bryantstad,TN,06241,United States
East Neil,NH,63328,United States
Lake Chadtown,LA,53210,United States
East Barbara,WI,09330,United States
FPO AE 73935,Unknown Region,73935,United States
Knightville,ME,11479,United States
South Teresa,AL,13041,United States
North Kristinport,WV,85372,United States
Port Jonathanfort,CO,63043,United States
Lake Christybury,NE,15916,United States
New Lawrencestad,MS,08287,United States
West Tim,VT,65423,United States
Welchfurt,NY,86449,United States
Edwardsbury,KY,40901,United States
Hernandezberg,WV,18865,United States
Stevenhaven,WV,68660,United States
Maddenmouth,MI,73468,United States
East Tonychester,NV,60819,United States
Lake Johnland,MN,58730,United States
Port Kristinahaven,AZ,53092,United States
Burnsland,ME,39194,United States
East Ashley,NV,42186,United States
Port Tinaville,OK,13845,United States
Port Scott,GA,02601,United States
Lake Aaronbury,TN,77783,United States
North Mercedes,ID,19255,United States
North Donald,LA,88685,United States
Jenkinston,KS,34028,United States
Davidstad,FL,96183,United States
Seanbury,RI,36233,United States
North Parker,MT,33746,United States
Burgessside,NM,59468,United States
New Paul,NM,97468,United States
Woodmouth,IL,56113,United States
Port Craig,WA,08504,United States
North Ricky,GA,71520,United States
East Chadfurt,LA,73954,United States
East Katrina,AR,56445,United States
Drakeborough,MN,43714,United States
New Melissahaven,NC,33201,United States
Lake Tammyfurt,CO,36431,United States
Lake Ronnie,WV,75111,United States
Box 1493,APO,75016,United States
New Scottshire,HI,32162,United States
Wattschester,NJ,93523,United States
Jadeton,OK,62683,United States
Port Jamesport,OK,03238,United States
Michaelport,MT,61246,United States
West Randy,WA,63565,United States
Thompsonburgh,WV,09307,United States
North Katherineville,MS,37063,United States
West Casey,ME,19987,United States
Box 1354,APO,23548,United States
South Lisa,MA,62349,United States
FPO AE 86439,Unknown Region,86439,United States
West Josephhaven,HI,91248,United States
Nicolemouth,KY,43397,United States
Port Daniel,NH,18439,United States
South Sarah,NE,40740,United States
Christinefurt,CO,76788,United States
Delgadoport,IL,08367,United States
Box 4133,APO,17657,United States
East Carolynville,WI,18431,United States
Taylorville,WA,58541,United States
East Manuelton,WI,54546,United States
East Michellestad,CA,11405,United States
New Ashleeton,TN,97669,United States
Carrollport,VA,23247,United States
FPO AE 20830,Unknown Region,20830,United States
North Austinmouth,GA,87709,United States
Christinashire,NM,58634,United States
North Derek,DE,21555,United States
South Norma,NH,98461,United States
Jonesberg,OH,09247,United States
Port George,SD,76262,United States
FPO AE 88738,Unknown Region,88738,United States
Port Rachael,MI,93315,United States
Sandovalport,PA,95374,United States
Miaview,MT,49489,United States
Campbelltown,NM,35669,United States
Crawfordland,WA,84732,United States
Rodneyland,SD,58867,United States
New Deniseview,WI,43330,United States
West Maryshire,NY,55505,United States
Carterberg,NY,10738,United States
South Marissashire,CO,94785,United States
Eugeneshire,TN,62834,United States
Baileyborough,GA,49506,United States
West Joshua,VA,86836,United States
Jeffberg,FL,99375,United States
Colemanburgh,NE,08395,United States
Hernandezville,UT,79244,United States
Lake Timothyland,KY,96549,United States
North Wendy,RI,89375,United States
Andersonmouth,OR,76857,United States
Stephensmouth,MD,43484,United States
Lake Amandastad,UT,83719,United States
Box 9236,APO,93658,United States
South Amy,AK,05834,United States
Mikeberg,MD,16095,United States
Aaronshire,NJ,89655,United States
West Kimberly,LA,73321,United States
South Summer,OK,94732,United States
North Melissatown,ID,97882,United States
North Sheliaburgh,ND,59193,United States
Lindatown,LA,68641,United States
Emilyshire,CT,91590,United States
Nathanielview,IL,24463,United States
North Johnnyton,NM,80851,United States
West Cristian,MO,71414,United States
South Kyliemouth,HI,98514,United States
Montesport,ME,71804,United States
West Jose,DE,64202,United States
Cherylton,MD,48370,United States
Jonathanfort,NE,55718,United States
West Nicoleland,WI,56244,United States
North Patriciamouth,AR,72858,United States
Lake Gregory,ME,40101,United States
Lake Seanchester,TX,91542,United States
Jasmineborough,WI,67195,United States
Lake Deborah,NY,97888,United States
Hoganmouth,NY,53841,United States
Richardsonview,NM,78090,United States
Lake Ryanburgh,FL,78191,United States
New Lawrencefurt,IA,01258,United States
East Philipville,IN,76745,United States
South Alexandershire,IL,32826,United States
East Wendyton,MN,18114,United States
Box 5262,APO,72989,United States
FPO AE 41547,Unknown Region,41547,United States
Kimberlymouth,NJ,10237,United States
North Davidberg,DC,77771,United States
South Kent,NJ,42625,United States
Meyershaven,DE,30227,United States
Smithbury,MS,87264,United States
North Michaelside,TN,12908,United States
Fitzpatrickland,SC,86862,United States
North Shannonville,HI,51914,United States
DPO AE 98036,Unknown Region,98036,United States
Victormouth,AL,73009,United States
Joseside,TN,93171,United States
Dennisberg,SD,35336,United States
Lake Theresa,CO,76747,United States
Lake Anthony,WY,45578,United States
Davismouth,UT,01989,United States
Villanuevaville,DE,78385,United States
South Johnnyview,OH,87279,United States
Snyderstad,CO,75387,United States
Cookland,AK,07856,United States
DPO AP 09217,Unknown Region,09217,United States
Tylerstad,CT,87519,United States
Reesestad,OR,58475,United States
Lewisfort,NJ,48232,United States
West Danielle,IL,21702,United States
Carlport,IN,09877,United States
Ashleyville,MT,94223,United States
DPO AA 40540,Unknown Region,40540,United States
Lake Krista,AR,30515,United States
FPO AA 45356,Unknown Region,45356,United States
Guerreroberg,GA,82073,United States
West Angelaburgh,ND,27437,United States
Lake Savannah,NH,48970,United States
New Ashleyport,OH,77652,United States
Julieside,MA,08432,United States
West Rodney,CA,73888,United States
Lake Dale,SC,78447,United States
Wangland,FL,66418,United States
Tracieshire,PA,92533,United States
South Andremouth,NC,33164,United States
Hammondmouth,VA,30833,United States
New Katherineland,WY,08190,United States
Patriciaborough,MT,15009,United States
Lefort,ND,83058,United States
East Stacey,RI,17734,United States
Lake Kathryn,DE,45969,United States
South Julie,OK,95707,United States
West Carlosville,IL,26469,United States
FPO AA 61819,Unknown Region,61819,United States
Port Rachael,MN,95522,United States
East Jenniferburgh,MA,73089,United States
DPO AA 44518,Unknown Region,44518,United States
Garciatown,VA,18272,United States
West Jeffrey,SD,22271,United States
North Theresaburgh,NH,15695,United States
FPO AP 50591,Unknown Region,50591,United States
North Andreachester,ND,08306,United States
Michaelshire,CA,45983,United States
South Kimberlyland,MN,75770,United States
West Deborahchester,AK,73409,United States
Dawnside,OH,72349,United States
Anthonyville,AZ,74781,United States
Rileystad,RI,78143,United States
South Kylefort,IN,15097,United States
Powellview,ND,08513,United States
South Daniel,NM,38853,United States
Box 4785,APO,34566,United States
Samanthaburgh,NE,26002,United States
North William,KS,08700,United States
Averyville,AR,90731,United States
West Ronald,VT,59507,United States
Marciahaven,GA,80582,United States
Lake Blake,WA,61909,United States
New Marissaside,UT,97446,United States
Port Ashleyview,NM,02084,United States
North Kevinview,VT,02672,United States
Alexisburgh,MI,17787,United States
East Jeffrey,TX,23964,United States
East Cynthia,OR,11835,United States
Lisahaven,CT,65526,United States
Leeside,RI,60450,United States
West Maryberg,ME,07680,United States
Lukechester,WA,51010,United States
Port Michaelport,AZ,84758,United States
New Kelly,MI,68404,United States
Taylorton,IN,69782,United States
Mariabury,DE,96959,United States
Mooreborough,AR,40566,United States
South Joshua,SC,12124,United States
Denniston,MN,03323,United States
DPO AP 73587,Unknown Region,73587,United States
West Jamesview,OH,49882,United States
Ramseystad,MA,85527,United States
Mcmahonton,MO,11105,United States
Lake Michaelmouth,ME,56236,United States
Kimberlyport,UT,56322,United States
North Garystad,AR,93214,United States
Gentryborough,TN,92555,United States
East Anthonyland,ME,03872,United States
Lake Erika,KS,95915,United States
Lake Kathleenfurt,SD,03013,United States
Normanview,RI,51858,United States
New Barbara,ND,27645,United States
Jonesfurt,NM,14046,United States
DPO AP 67276,Unknown Region,67276,United States
East Madelineland,MI,93291,United States
Martinezmouth,TN,41271,United States
South Deanhaven,AK,55212,United States
New Lisaborough,OK,04430,United States
Port Brian,ND,61665,United States
Lake Patrickland,DC,23814,United States
Michaelmouth,WA,87419,United States
East Elizabeth,AZ,75049,United States
North Steven,IN,26504,United States
Port Timothy,TN,40391,United States
South Williamtown,MT,70334,United States
North Jonberg,WV,77360,United States
New Denise,DC,01378,United States
New Susanland,MI,94683,United States
Courtneyland,NH,45206,United States
East Michelle,KY,92774,United States
North James,NV,19337,United States
Solisville,LA,78330,United States
Rodgerstown,WV,09699,United States
Stephenton,WI,56897,United States
Port Marilyn,NJ,09300,United States
Helenchester,MI,98451,United States
West Tommy,IL,41588,United States
East Jeffrey,MI,50563,United States
Lake Christopherhaven,MT,94310,United States
West Brandonbury,PA,90335,United States
North Anthony,GA,01898,United States
North Ariel,MT,27198,United States
Port Valerieburgh,KY,51133,United States
South Lindaport,MT,86642,United States
Andrewborough,WA,38762,United States
New Adrienneshire,CO,13411,United States
Brownton,OR,97987,United States
FPO AA 14699,Unknown Region,14699,United States
Box 7784,APO,66035,United States
New Susan,GA,83238,United States
Wattston,NY,72312,United States
FPO AA 26202,Unknown Region,26202,United States
North Stacey,ME,12229,United States
Calderonport,AR,17342,United States
North Davidview,CA,50772,United States
Walshville,MT,78180,United States
North John,NE,48756,United States
Lake Kristenview,WV,46973,United States
Annashire,NE,83999,United States
Lake David,DE,56855,United States
Rodgersburgh,MN,90082,United States
Rossville,OK,81620,United States
New Elizabeth,TX,54143,United States
Thompsonmouth,AK,62617,United States
Mcclureton,FL,77739,United States
DPO AE 99407,Unknown Region,99407,United States
Andersonton,NH,28282,United States
DPO AP 44842,Unknown Region,44842,United States
Lake Elijah,NV,40058,United States
Box 5168,APO,92275,United States
Holtburgh,KS,43934,United States
Port Loganfort,WV,83774,United States
East Marissa,ME,34321,United States
DPO AA 04225,Unknown Region,04225,United States
Port Robertotown,UT,36419,United States
Jonesborough,MO,89511,United States
Stephenville,WV,92667,United States
Michaelmouth,CO,89568,United States
Brandiborough,MD,24153,United States
Michaelport,KY,30581,United States
South Steve,GA,36543,United States
Alexanderside,HI,01473,United States
North Amandafurt,AL,10972,United States
New Ashleyland,AR,15767,United States
Lloydside,NV,89756,United States
Lawsonmouth,OK,93010,United States
Lisabury,MN,87956,United States
East Katrinaton,CO,72802,United States
Kimberlystad,DE,83977,United States
Amberburgh,UT,70941,United States
South Christianville,MO,98540,United States
Allenbury,MT,60610,United States
New Brian,VA,94081,United States
Watkinsfort,NV,93664,United States
Jackfort,LA,10292,United States
Valdezton,MS,02318,United States
South Tarabury,IN,19301,United States
South Kristieview,AK,86455,United States
Sheilashire,PA,26123,United States
Lake Jennifer,MT,24017,United States
West Amymouth,UT,66058,United States
Clarktown,RI,57481,United States
Michaelchester,AK,81915,United States
East Ashley,HI,43457,United States
North Shannon,RI,35899,United States
South Michelleville,WI,61375,United States
Box 4406,APO,91952,United States
South Linda,AZ,38516,United States
Kellyborough,HI,67079,United States
Lake Debbie,CO,98501,United States
North Stacy,RI,98278,United States
Turnerbury,CT,64442,United States
Harrisonhaven,SC,60626,United States
West Jasonfort,LA,50413,United States
Brookston,KY,36240,United States
Jenniferton,NV,40955,United States
Box 8022,APO,68753,United States
Port Lisachester,NE,08437,United States
DPO AA 27769,Unknown Region,27769,United States
New Danieltown,TN,77206,United States
Gomezmouth,TX,61147,United States
Durhammouth,HI,37689,United States
South Peter,UT,60919,United States
New Dawn,OK,23006,United States
Port Brandon,KY,13530,United States
Martinshire,PA,57886,United States
Lake Brandon,DE,03510,United States
Nicholasshire,SD,20409,United States
Comptonview,NV,35154,United States
Margaretport,MS,32971,United States
Box 3228,APO,17256,United States
New Robert,MN,06270,United States
Samanthaside,IL,31279,United States
DPO AE 26503,Unknown Region,26503,United States
Tuckerside,CT,59059,United States
West Christopher,KS,14846,United States
Alexisville,MS,51454,United States
East Karenberg,CA,16496,United States
Natalieburgh,RI,45865,United States
Georgeland,AL,57149,United States
West Patrickmouth,OK,52552,United States
West Timothybury,DE,19484,United States
New Brent,NC,41190,United States
New Penny,NE,87759,United States
Lake Jenniferchester,SD,59891,United States
Box 4638,APO,24011,United States
North Margaretchester,PA,77310,United States
Millerfort,WV,63278,United States
Jonesshire,NJ,30343,United States
Derrickville,MS,19528,United States
North Zacharymouth,VT,64334,United States
Jackieville,SC,85081,United States
Brockfurt,UT,84737,United States
New James,ME,87758,United States
Fisherchester,AK,01625,United States
Virginiaside,OH,78989,United States
Kimberlyfort,WI,67246,United States
New Shawnport,ID,59044,United States
Westside,ME,74118,United States
Harrisborough,CA,89760,United States
North Rickymouth,CA,22113,United States
Randyshire,KY,98735,United States
Port Jeanne,TN,93598,United States
Sweeneyland,OR,73316,United States
Stephenborough,GA,81024,United States
South Dean,NV,49887,United States
FPO AE 78839,Unknown Region,78839,United States
Duncanside,IL,67166,United States
South Abigailview,DC,76751,United States
New Tylerfurt,CO,28484,United States
Danielberg,NM,54973,United States
East Erika,FL,46896,United States
Matthewhaven,NH,08525,United States
South Crystalburgh,NE,03751,United States
West Scott,VA,25678,United States
Box 8427,APO,92667,United States
West William,HI,70183,United States
West Joshua,VT,30283,United States
DPO AE 79120,Unknown Region,79120,United States
Annamouth,RI,03620,United States
Taylorside,IN,81824,United States
New Sherrymouth,AL,85648,United States
Steinmouth,IL,64729,United States
North Donna,UT,75358,United States
Andrewton,MN,45339,United States
New Terri,MO,86075,United States
Baileystad,OH,69446,United States
Henryborough,CA,35486,United States
Mauriceview,GA,07755,United States
Rosefort,CA,88375,United States
North Yolanda,LA,72208,United States
Rickborough,AL,01402,United States
Box 1595,APO,82705,United States
Hawkinsview,ME,23782,United States
South Charles,WI,29143,United States
West George,IN,19387,United States
New Cheryl,MS,24283,United States
Williamsport,MA,45866,United States
New Justinport,VT,84285,United States
Port Andrew,OK,60655,United States
Meganport,ID,83935,United States
Port Aaronview,NV,84832,United States
Port Connorton,WI,72416,United States
DPO AA 70371,Unknown Region,70371,United States
DPO AP 50151,Unknown Region,50151,United States
Port Melissa,SC,97249,United States
East Briannamouth,WA,65052,United States
East Kirkburgh,CO,88977,United States
Box 1962,APO,70103,United States
FPO AA 48418,Unknown Region,48418,United States
Morganside,MI,54106,United States
Port Glennshire,NV,08402,United States
Kellyport,ME,92664,United States
Melissafort,SD,79572,United States
Watsonhaven,HI,94647,United States
Mariachester,AR,54851,United States
East Thomashaven,WY,28554,United States
Campbellstad,MD,84374,United States
South Beth,AL,75652,United States
East Maryfurt,MN,74815,United States
Meganburgh,KY,83335,United States
East Joseport,NY,47550,United States
Port Ashleyside,ND,51640,United States
West Cindy,GA,01028,United States
Masseyton,UT,24053,United States
South Leslieton,KS,51817,United States
Stevenfurt,DE,81797,United States
Box 6823,APO,79603,United States
South Teresa,HI,35882,United States
Bishopshire,DC,82291,United States
Whitebury,SD,06382,United States
FPO AE 36126,Unknown Region,36126,United States
Wallaceborough,WI,42759,United States
South Amyshire,MI,05072,United States
Port Charles,MN,06789,United States
Dillonchester,DC,64515,United States
West Roberttown,MN,25478,United States
West Johnchester,MI,91517,United States
Lake Jessicabury,WY,91604,United States
Jonside,WV,32776,United States
North Matthewbury,DC,40165,United States
Virginiafurt,AK,72803,United States
West Victorburgh,AZ,80090,United States
Port Heather,SD,03928,United States
Millsfurt,NY,69253,United States
North Sabrinaview,TN,70985,United States
Benjaminport,GA,57810,United States
East Angela,TN,66618,United States
Kurtport,MN,91977,United States
Moraleston,WA,23461,United States
Lake Albert,NE,63353,United States
Harristown,WY,03734,United States
Ryanmouth,TX,47196,United States
Spearsborough,MA,11600,United States
Kaitlynburgh,OR,64585,United States
FPO AA 06194,Unknown Region,06194,United States
New Stephen,CT,98761,United States
West Jennifer,MD,18142,United States
Jacobport,CA,83114,United States
Gardnerview,IL,94066,United States
New Christopher,SD,28139,United States
South Aaronshire,GA,57494,United States
South Paulamouth,DC,03428,United States
New David,MS,18953,United States
North Juliaville,SC,10374,United States
Port Jennifermouth,NH,55743,United States
DPO AA 89219,Unknown Region,89219,United States
Box 0955,APO,34779,United States
Port Timothy,MA,59603,United States
Troyborough,IA,71625,United States
North Jeromestad,IN,02334,United States
West Johnmouth,IN,08916,United States
Port Nicholas,FL,07480,United States
Middletonmouth,DE,75735,United States
Kellyburgh,NJ,58446,United States
Lake Ariel,OH,59313,United States
Bowmanberg,MA,25690,United States
Stevensonport,NJ,56964,United States
Melindaport,AL,11534,United States
Port Kristopherberg,MI,70448,United States
East Donald,OK,32412,United States
North Kayleeborough,OH,02052,United States
Port Joseph,WI,06186,United States
North Jillport,NH,65520,United States
DPO AA 31247,Unknown Region,31247,United States
West Sarah,MS,61055,United States
Mcguireton,LA,82401,United States
Wilsonburgh,AK,30226,United States
East Elizabethborough,SD,46279,United States
Mckenzieville,NH,09447,United States
Box 3260,APO,22365,United States
North Lisa,DC,65028,United States
South Scottport,NH,07617,United States
West Carly,CT,64691,United States
Ericstad,WI,27718,United States
Nelsonfurt,MN,88168,United States
North Davidberg,HI,00942,United States
Box 0129,APO,41802,United States
Englishburgh,VT,54696,United States
Lake Deborahhaven,TX,94963,United States
Jasonburgh,TN,30018,United States
Lake Regina,DE,14756,United States
Sharonstad,OK,07828,United States
Floreston,AZ,75324,United States
Ellisonburgh,AR,93926,United States
Valentinechester,SD,23476,United States
New Taylor,NM,29932,United States
Coletown,UT,48737,United States
North Anne,NM,44142,United States
Port Jennifer,KY,04455,United States
Ashleyview,KY,56642,United States
Kirbychester,OR,55168,United States
North Christinafort,NY,01349,United States
West Williamview,AL,74184,United States
Ballville,VT,43267,United States
Cisnerosfort,ME,49161,United States
North Andrewmouth,AK,45918,United States
Maureenfort,VT,25666,United States
Reedbury,NY,61914,United States
Solisbury,GA,62799,United States
South Karen,MI,56713,United States
Curtisberg,CA,52779,United States
Lake Marthaview,DE,45340,United States
Danielmouth,TN,44198,United States
Briannaview,UT,51715,United States
Jeremymouth,NJ,84315,United States
Millerburgh,VT,93269,United States
Ashleyfurt,SC,78973,United States
Williamburgh,AZ,02900,United States
FPO AP 40551,Unknown Region,40551,United States
North Jennifer,MD,87226,United States
New Davidburgh,KS,81283,United States
Box 0987,APO,06749,United States
Port Roberttown,KS,49725,United States
Murraychester,WV,45462,United States
South Joshuaburgh,WA,46762,United States
Lake Kelly,DC,13246,United States
Christophershire,LA,73976,United States
Thomashaven,IL,93206,United States
DPO AE 82937,Unknown Region,82937,United States
Matthewbury,TN,05752,United States
FPO AA 10172,Unknown Region,10172,United States
Wilkinston,AK,79431,United States
Box 0918,APO,31478,United States
Box 9187,APO,92598,United States
Lake Jon,AR,03299,United States
Box 7547,APO,74230,United States
West Natalietown,RI,40463,United States
Port Teresa,VA,59575,United States
Thompsonborough,NC,62293,United States
East Melissaland,UT,81970,United States
Lake April,PA,65760,United States
East Dannyside,ND,58361,United States
South Jonshire,ID,03390,United States
West Rhondamouth,SD,70146,United States
Hallburgh,PA,54145,United States
Harrisonburgh,AZ,57607,United States
West Catherine,KS,21896,United States
Lake Hannahmouth,KY,26256,United States
Martinmouth,MN,99205,United States
Benjaminborough,MT,10945,United States
Port Miguelton,WI,14052,United States
Port Sean,ID,52390,United States
Singhville,MT,41693,United States
Castroberg,SC,49170,United States
Reillyview,GA,28325,United States
Ginachester,CT,39176,United States
Jenniferborough,KY,65433,United States
Turnerland,UT,94108,United States
Lake Samanthaview,MO,86732,United States
West Christy,HI,62483,United States
Goodwinside,MT,54363,United States
Boydville,NJ,11572,United States
Box 6951,APO,03263,United States
North Zachary,LA,07389,United States
Stewartfurt,MD,69798,United States
New Laurenton,NV,85953,United States
Mitchellmouth,NJ,05821,United States
Frankborough,NV,15391,United States
Cynthiaview,CO,55194,United States
Port Michelebury,OR,05004,United States
New Michael,AR,01888,United States
Jamesshire,NH,73542,United States
West Sarah,CT,73855,United States
Brownmouth,OK,39741,United States
North Natashaborough,OK,41118,United States
North Jonathan,NC,62021,United States
East Kentburgh,TN,42762,United States
Port Philip,WV,76999,United States
East Williammouth,NE,63177,United States
Port Felicia,OK,01846,United States
North Jillmouth,MA,87348,United States
Lake Jennifer,NH,97815,United States
Monroeton,NJ,20359,United States
West Joelberg,WI,41337,United States
South Timothy,AZ,54294,United States
Lake Charles,SC,48766,United States
New Nicholasmouth,NM,29194,United States
FPO AE 64012,Unknown Region,64012,United States
New Leslie,NJ,06831,United States
South James,FL,04130,United States
Lake Jennifer,WI,20508,United States
Sheltonmouth,ID,84536,United States
FPO AA 16527,Unknown Region,16527,United States
South Paulburgh,CA,44709,United States
Port Travis,DC,04289,United States
Hernandezborough,OK,33105,United States
Lake Amandafurt,NM,17502,United States
Port Steven,GA,89398,United States
East Diane,SD,19612,United States
Ashleyburgh,WA,58888,United States
Burgesstown,WI,03013,United States
Garzabury,MI,46251,United States
Galvanberg,FL,73406,United States
North Robertfort,VA,63452,United States
South Patrick,IN,40876,United States
Wellsview,KY,02461,United States
Jeremyshire,WY,66164,United States
Box 7088,APO,66545,United States
West Austin,AR,69019,United States
DPO AE 80916,Unknown Region,80916,United States
Goldenport,OR,28506,United States
Chadstad,HI,21956,United States
New Erica,IN,19713,United States
South Kelly,TN,12869,United States
Colleenton,SC,55238,United States
Nortonstad,AR,81634,United States
East Adam,NJ,18288,United States
Michelleborough,NH,30219,United States
Sharpstad,WA,76652,United States
Ericborough,NY,07560,United States
South Cherylborough,OK,30627,United States
New Jim,CT,68256,United States
East Tracey,KY,41038,United States
West Patriciashire,KS,25160,United States
Samanthatown,NV,43365,United States
Sanchezshire,OK,53110,United States
Lake Jeffery,ME,63598,United States
Michaelmouth,CT,96047,United States
South Shelbyborough,AZ,21749,United States
Box 2974,APO,55655,United States
Shelbymouth,AZ,77891,United States
Port Elizabethborough,NH,28507,United States
Grayfurt,DE,99682,United States
Lake Emilyton,AR,96080,United States
FPO AE 47025,Unknown Region,47025,United States
Sarahfurt,MD,93469,United States
Daniellefort,WY,03045,United States
Stuartport,DC,25192,United States
Darrellland,WV,74639,United States
Michaeltown,ND,31466,United States
South Angela,TN,20740,United States
Lauraborough,NH,08741,United States
East Jenniferchester,MT,08402,United States
DPO AP 75663,Unknown Region,75663,United States
New Rebecca,VA,01158,United States
FPO AP 79683,Unknown Region,79683,United States
Lake Kelseystad,KS,05280,United States
Box 0548,APO,33293,United States
Smithtown,GA,64955,United States
North John,SD,29122,United States
North Marissafurt,ME,01262,United States
Romanburgh,IA,64146,United States
Natashaside,HI,96336,United States
FPO AP 79249,Unknown Region,79249,United States
Bryanfurt,NC,72604,United States
Johnsonfurt,NH,26321,United States
Traceyside,AZ,58176,United States
Landrytown,VA,99502,United States
Evansfurt,AR,51154,United States
West Michaelaport,OH,92424,United States
Sarahville,NM,86977,United States
Erikside,TX,44977,United States
DPO AA 54845,Unknown Region,54845,United States
South Cindy,CO,00547,United States
South Aaron,OR,44924,United States
North Elizabeth,AR,33484,United States
New Alexis,MA,89194,United States
Lake Susanmouth,HI,96671,United States
Esparzaberg,OH,67898,United States
Port Fredborough,DE,77365,United States
Lindafurt,WV,54284,United States
Jonathanburgh,IA,50426,United States
North Crystal,NM,62610,United States
Lake Julieton,AL,24974,United States
Fernandezland,NC,91226,United States
Robertport,PA,54911,United States
Wyattside,MN,46156,United States
Lake Annhaven,ME,75749,United States
Lake Timothyfurt,GA,12440,United States
North Justinmouth,GA,86994,United States
South Susan,DE,12165,United States
Lake Shawnchester,TX,85126,United States
North Travisside,OR,92923,United States
Lewisville,OH,13391,United States
DPO AA 11427,Unknown Region,11427,United States
Tiffanyside,MN,02144,United States
West Aaron,WV,75328,United States
Johnton,MN,00696,United States
Wattsberg,ME,58493,United States
New Amanda,VA,07868,United States
Christopherside,NV,63492,United States
DPO AA 15497,Unknown Region,15497,United States
Port Michaelfurt,SC,48749,United States
South Thomasfort,LA,41555,United States
Mejiachester,IA,79231,United States
Box 3511,APO,02300,United States
North Donna,TX,19593,United States
North Megan,AK,22186,United States
Allisonburgh,AL,03192,United States
Harrisburgh,MA,26520,United States
North Angelamouth,PA,87182,United States
New Danielport,DC,57618,United States
Francisshire,GA,05596,United States
Port Jennifer,DC,24500,United States
DPO AP 30619,Unknown Region,30619,United States
Tylerland,ME,34500,United States
Rebeccaport,VT,45465,United States
Box 9632,APO,43572,United States
East Sarahshire,OR,81164,United States
Box 0303,APO,59930,United States
Box 7476,APO,56559,United States
Margaretfurt,CO,87308,United States
Youngburgh,NE,95757,United States
Box 8706,APO,58566,United States
Michaelside,TX,73521,United States
Oliverside,OK,54479,United States
Jamieview,PA,84496,United States
New Joe,ID,08887,United States
Andersonbury,NC,86670,United States
West Christinefurt,ME,30804,United States
South Jenniferfort,DC,78790,United States
Port Sandra,WA,11265,United States
Dianafort,TN,85349,United States
Lewiston,IA,07310,United States
Brewerberg,NV,43498,United States
Charlesview,NM,14282,United States
Port Amy,NY,88845,United States
Port Carlos,OH,53777,United States
South Amandafurt,TN,47336,United States
Lake Danielleville,VT,53604,United States
New Janetborough,ND,50063,United States
Jessicaland,NE,60951,United States
Kyleland,WV,44287,United States
Gutierrezburgh,WV,74730,United States
Judithhaven,ND,96704,United States
Bradfordchester,WA,42185,United States
Tonyaton,WY,28404,United States
Delgadoborough,FL,12183,United States
Angelastad,WI,80597,United States
FPO AA 11978,Unknown Region,11978,United States
West Garyberg,AZ,85265,United States
Port Jaime,ND,17315,United States
Dennisview,WI,20776,United States
West Michaelfort,ID,39740,United States
Box 4064,APO,64701,United States
South Dillon,IA,64594,United States
Stephanieland,WI,17620,United States
West Karenborough,ME,66064,United States
North Tammytown,IA,86738,United States
Moorebury,RI,83130,United States
New Angelafort,MD,52984,United States
Evansside,GA,19291,United States
South Linda,WY,26257,United States
West Jennifermouth,MA,91491,United States
Farmermouth,NY,38646,United States
Williamsburgh,TX,61085,United States
Hannahport,CO,68910,United States
Lake Gabrielleshire,MD,50809,United States
Briannaport,KS,89551,United States
Box 0791,APO,92383,United States
Hannahburgh,AK,99362,United States
Bakerbury,MO,25875,United States
Joseburgh,IA,47167,United States
Micheleview,KY,05413,United States
Bethville,WY,05384,United States
Brianport,MA,54576,United States
Albertshire,NJ,59223,United States
Lake Danieltown,PA,94657,United States
Lake Lauraburgh,HI,55384,United States
New Amystad,PA,15825,United States
Lake Richard,ME,75276,United States
New Davidville,IA,38401,United States
Lake Anthony,UT,80699,United States
Joycechester,MO,92133,United States
North Shannon,WA,97230,United States
Holderside,TX,85142,United States
Box 7318,APO,59009,United States
Port Paul,NH,61867,United States
Port Robert,WA,14211,United States
Ginabury,NM,77119,United States
North Katherineton,VT,76060,United States
Ginaland,IN,46314,United States
New Thomaston,AL,17022,United States
Smithmouth,SD,26287,United States
Box 5487,APO,00611,United States
South Timothy,TX,49457,United States
Pettystad,AL,60001,United States
Cynthiaberg,NH,69666,United States
West Christopherport,MO,52653,United States
Williamshaven,DC,83418,United States
DPO AA 64068,Unknown Region,64068,United States
North James,DE,99555,United States
West Saraport,IN,61363,United States
Mooreport,NV,02611,United States
North Rachael,WA,66952,United States
Edwardsfort,IN,65656,United States
Eriktown,GA,35203,United States
Lake Gina,VT,64559,United States
Newmanstad,IA,49427,United States
South Steven,VT,77274,United States
Lake Benjamin,CA,35334,United States
Andersonstad,AZ,32887,United States
North Robert,GA,90085,United States
Box 5174,APO,26662,United States
West Linda,MD,19859,United States
East Samantha,OH,92619,United States
Port Joy,OR,55097,United States
New Coltontown,CT,08616,United States
South Joannmouth,MD,66235,United States
DPO AA 51826,Unknown Region,51826,United States
South Theresahaven,ID,55046,United States
Kimberlyfurt,ME,73610,United States
Charlesshire,OH,56580,United States
Wustad,WV,45469,United States
Port Davidborough,IL,32818,United States
Lake Joseph,MO,54647,United States
New Jenniferfurt,HI,73801,United States
FPO AA 07992,Unknown Region,07992,United States
Kylemouth,MA,37985,United States
Billshire,PA,26918,United States
South Seanfort,FL,08632,United States
New Sarah,ND,87741,United States
Port Christopherland,DE,54953,United States
Margarettown,MI,16721,United States
Whiteville,AK,16938,United States
Lyonsland,NY,42616,United States
Johnsonberg,LA,41453,United States
Atkinsonshire,NC,12287,United States
South Shelby,CA,69673,United States
Patrickbury,CA,28991,United States
East Mark,MD,63294,United States
Lisatown,WV,77707,United States
Lake Lisatown,NM,33512,United States
Watsonchester,WY,75439,United States
Port Elizabeth,MN,91321,United States
Erintown,ID,96943,United States
East Vickiborough,CA,35734,United States
Christophertown,OH,66975,United States
West Melanieberg,NH,13927,United States
West Regina,OR,90701,United States
Box 7159,APO,45627,United States
Lake John,UT,61019,United States
South Angela,MI,41154,United States
Wardshire,PA,47154,United States
Jamesmouth,TN,18784,United States
East Melissa,FL,97629,United States
FPO AA 86456,Unknown Region,86456,United States
Cohenburgh,AK,05242,United States
North Toddport,SC,54824,United States
South Brittanyville,AL,62047,United States
North Juanberg,GA,75901,United States
East Mark,NM,36176,United States
FPO AE 79872,Unknown Region,79872,United States
Victoriamouth,RI,72354,United States
Nataliefurt,MD,06183,United States
South Arielside,SC,29874,United States
Ramosberg,IN,89275,United States
North Amandaborough,DE,02548,United States
FPO AP 44237,Unknown Region,44237,United States
Vargasmouth,MI,95014,United States
Lauramouth,NM,34956,United States
Sandramouth,WI,33919,United States
West Jessica,DC,06799,United States
West Joyce,NM,55044,United States
East Karenport,TN,58119,United States
DPO AE 72143,Unknown Region,72143,United States
West Emilyport,CO,02339,United States
Annahaven,FL,84140,United States
East Danielletown,SC,25272,United States
FPO AE 76416,Unknown Region,76416,United States
North Michaelton,OR,32714,United States
New Nancy,TN,39418,United States
Port Cassandraborough,ND,05010,United States
South Sandra,NE,60129,United States
Guerrerohaven,NJ,97462,United States
Lewisview,FL,02193,United States
Theresamouth,MS,43721,United States
Bethland,MD,13361,United States
East Ashley,IL,08317,United States
Port Michael,GA,05152,United States
New Anthonychester,KY,53991,United States
Greenland,OK,53040,United States
Brandystad,WI,67876,United States
Angelachester,VA,66718,United States
DPO AE 51190,Unknown Region,51190,United States
DPO AP 07677,Unknown Region,07677,United States
Jenniferborough,ID,05632,United States
Lake Barbaraside,AL,73487,United States
Cherylville,NY,70884,United States
Teresaburgh,KS,01502,United States
Box 4538,APO,54377,United States
Vanessabury,AZ,06305,United States
FPO AP 15742,Unknown Region,15742,United States
Shannonshire,OR,66090,United States
West Michaelshire,OR,84889,United States
Kimberlyland,WI,31566,United States
South Samuel,OH,07351,United States
North Veronica,HI,64072,United States
Warrenside,CT,97350,United States
Box 7191,APO,55711,United States
FPO AA 51250,Unknown Region,51250,United States
Whitechester,ME,35940,United States
Murphyside,MT,38177,United States
South Jennifer,NH,52628,United States
Perkinsville,IN,03943,United States
North Kennethhaven,MD,73891,United States
New John,DC,39890,United States
New Craigberg,NH,62763,United States
South Jamesstad,HI,33895,United States
Yvonneton,LA,76840,United States
Nathanborough,AR,56315,United States
New Adam,VT,69495,United States
Alexandrashire,NH,01024,United States
Josephhaven,RI,37063,United States
Sarahshire,AR,27936,United States
New Kurt,AR,81429,United States
Lake Brian,OH,42124,United States
Gibsonland,WY,02573,United States
Isaacville,MS,21640,United States
North Alyssahaven,WA,99026,United States
West Derrick,NC,00520,United States
East Brittanybury,MT,02491,United States
FPO AE 14171,Unknown Region,14171,United States
DPO AA 60420,Unknown Region,60420,United States
East Marissaland,ND,25831,United States
Tylerton,ND,95709,United States
Chaseville,NJ,32109,United States
New Denisefurt,MT,05883,United States
West Jenniferfurt,WV,14392,United States
Elizabethshire,AR,96066,United States
New Veronicashire,AK,82878,United States
Port Susan,VT,31852,United States
Parkershire,KS,74945,United States
Turnerborough,LA,25242,United States
West Derrickmouth,ID,98055,United States
North Crystal,WV,54182,United States
Jacquelineport,OR,56976,United States
Lanceburgh,NJ,32424,United States
Lake Alexa,FL,99652,United States
Eatonmouth,CA,64623,United States
Lesterview,IL,97026,United States
New Jamesberg,SD,38654,United States
West Brianfurt,TN,91556,United States
Millsmouth,NE,57453,United States
Marvinview,AL,84492,United States
FPO AE 23323,Unknown Region,23323,United States
North Christine,CA,45062,United States
South David,AK,44924,United States
Stephanieville,MN,92248,United States
Kellyton,AL,61316,United States
Foxmouth,CA,26871,United States
Amberview,MI,54605,United States
South Brendahaven,AL,83534,United States
Lake Amanda,TX,39242,United States
Tonyashire,ID,07813,United States
Carolborough,UT,25919,United States
Port Luke,TX,76038,United States
New Catherine,CT,08404,United States
DPO AA 92113,Unknown Region,92113,United States
Rickyhaven,IN,20802,United States
DPO AA 81502,Unknown Region,81502,United States
Virginiaburgh,SC,04658,United States
Emilystad,KS,82390,United States
North Daryl,MD,65198,United States
Morganland,WA,75641,United States
Tanyaberg,MN,48298,United States
Fisherland,KY,90965,United States
North Eduardo,MI,84685,United States
Melissahaven,LA,53232,United States
West Dawnshire,IA,80372,United States
West Robert,PA,10874,United States
Charlottestad,DC,54767,United States
Riceport,OR,53007,United States
Port Christopher,CO,48113,United States
New Danielburgh,NJ,86606,United States
Port Dawn,NM,45198,United States
Box 9553,APO,51566,United States
West Heathermouth,IL,59467,United States
Lake Emilychester,OR,82133,United States
Martinezbury,AZ,91855,United States
East Christopher,NM,48957,United States
Morrisburgh,WI,21392,United States
Dianeland,DE,48518,United States
Christopherton,NV,45783,United States
Pattonburgh,AL,29001,United States
West Kayla,AK,29415,United States
DPO AE 25589,Unknown Region,25589,United States
Bridgetfurt,GA,75083,United States
New Donaldfurt,NJ,92360,United States
New Emily,IN,39087,United States
Ashleyborough,PA,15877,United States
Owensburgh,OH,25599,United States
Lake Michellebury,NV,70304,United States
East Gilbert,AK,74246,United States
Anitaborough,SD,52479,United States
Lake Kyle,RI,50214,United States
Port Robertstad,GA,14830,United States
Victorport,ID,31810,United States
Nicholasbury,SC,87093,United States
Villanuevastad,MN,46551,United States
Lake Roy,CT,96657,United States
Ramirezfurt,GA,64404,United States
Dawnview,MA,79165,United States
Knoxhaven,TN,29890,United States
New Cynthiamouth,CT,38660,United States
North Daniel,WV,00709,United States
South Cheryl,IL,77504,United States
South Michael,WY,74293,United States
East Nicoleburgh,NE,00937,United States
Port Jamieburgh,MA,88514,United States
Anthonystad,TX,83274,United States
Christinaside,AR,45476,United States
West James,WY,01819,United States
FPO AP 21872,Unknown Region,21872,United States
Cowanborough,WI,67090,United States
East Annashire,AZ,17313,United States
Floresport,AK,64726,United States
East Jason,MS,77259,United States
Robinstad,MT,26830,United States
South Michellefurt,NV,98090,United States
New Chelseachester,WY,21540,United States
Hamptonmouth,NC,12075,United States
East Danielle,WI,41813,United States
Josephberg,OH,99920,United States
South Cynthiafurt,ND,38626,United States
Box 6384,APO,11351,United States
South Charles,MI,33379,United States
Crystalville,DC,88110,United States
Kimberlyborough,IL,06300,United States
Nelsonbury,NY,92972,United States
Ashleyborough,RI,74927,United States
Heatherland,NY,31076,United States
Rickychester,CA,02575,United States
West Alex,HI,73457,United States
South Erikburgh,CT,79367,United States
Wrightborough,CT,78101,United States
Maldonadoborough,NH,97337,United States
Baileyfort,MS,65089,United States
North Arielbury,FL,83072,United States
West Christinaside,WI,14826,United States
East Amberview,WI,74947,United States
Petersonton,MA,80260,United States
Anthonystad,CA,08639,United States
Theodoremouth,FL,35152,United States
DPO AE 83303,Unknown Region,83303,United States
Garytown,AR,96819,United States
North Karenburgh,AZ,73950,United States
Frederickview,MD,09951,United States
Lake Erinborough,MI,21029,United States
Jamesport,NJ,54367,United States
Angelaborough,DC,28820,United States
Leemouth,IA,99171,United States
Walltown,MO,51464,United States
West Fernando,OK,11981,United States
West Peterchester,IL,62949,United States
West Ricky,UT,23420,United States
Port Christinaborough,CA,03279,United States
East Tinaborough,AR,67849,United States
Box 7098,APO,88640,United States
New Shannonshire,CT,16057,United States
Kimberlyshire,IL,37949,United States
Port Michaelmouth,NE,47289,United States
North Kevin,MT,80053,United States
Campbelltown,FL,20113,United States
Port Debraport,VT,71693,United States
East Jim,VT,30160,United States
East Mary,IL,45104,United States
Jeremyside,MT,70562,United States
East Connie,NJ,19877,United States
East Charlesbury,CA,65882,United States
Lake James,MA,28918,United States
Stevenview,VA,65103,United States
North Jennifer,RI,70711,United States
Port Mistyville,SC,26936,United States
North Anthony,OK,60685,United States
Lake Brittanystad,WA,73114,United States
Hessmouth,AR,85337,United States
Ericamouth,SC,50976,United States
Box 8414,APO,55350,United States
North Melissa,IA,38218,United States
Barronville,AL,45588,United States
West Lisaside,LA,67858,United States
South Emily,NH,82249,United States
Brittanyhaven,HI,33510,United States
DPO AA 24186,Unknown Region,24186,United States
East Geraldchester,AR,98206,United States
Willisview,LA,69353,United States
North Jenna,CA,44481,United States
Charleschester,MI,28444,United States
Christianburgh,TX,19414,United States
Davidfurt,CO,12354,United States
Nicholeborough,WA,48633,United States
Kylebury,HI,25325,United States
FPO AP 03380,Unknown Region,03380,United States
Jacksonhaven,UT,72975,United States
DPO AP 32583,Unknown Region,32583,United States
Bishopport,PA,42987,United States
Port Anthonychester,KS,56062,United States
Jeffreyland,OR,15581,United States
New Mary,GA,67673,United States
Sethshire,IL,07228,United States
North Amandachester,RI,29026,United States
Charlesview,LA,02601,United States
Jessicaberg,OK,79458,United States
New Jeffrey,RI,68773,United States
North Tracyland,HI,28823,United States
Box 5512,APO,96320,United States
Michaelville,NC,70089,United States
Port Edward,IL,94685,United States
East Mindy,IN,97361,United States
Lisamouth,WA,76595,United States
Watsonfort,NM,44288,United States
DPO AE 83202,Unknown Region,83202,United States
East Candacemouth,NM,81961,United States
Roblesside,NC,31523,United States
Port Juliaborough,ME,07891,United States
Box 7629,APO,78639,United States
FPO AP 37965,Unknown Region,37965,United States
Lake Donald,ME,48774,United States
New Jeffreyside,IA,80827,United States
Cruzshire,MO,75948,United States
Meghanmouth,WV,92458,United States
West Nicholas,MT,60288,United States
DPO AP 28900,Unknown Region,28900,United States
Jeffreyland,AZ,63167,United States
Port Mary,OH,29903,United States
Lake Jamesport,DC,40810,United States
Susanville,AK,79841,United States
Box 7380,APO,78867,United States
South Walter,WY,74756,United States
Davidport,LA,98697,United States
East Brian,VT,85078,United States
Paulchester,WI,82284,United States
Delgadoburgh,OR,67896,United States
Williamborough,WI,23929,United States
South Brian,IN,04775,United States
Lake Ronaldtown,VT,88774,United States
Robertton,WI,63216,United States
Hendricksville,VT,16726,United States
Hendersonberg,NH,98973,United States
North Lisa,WI,58799,United States
New Michelle,AR,75934,United States
Parkershire,WA,83936,United States
Port Teresaton,NC,70379,United States
DPO AA 11896,Unknown Region,11896,United States
Edwardsshire,AK,33293,United States
Lake Tina,CT,08836,United States
West Pamela,CO,36245,United States
Caseyfurt,OH,68991,United States
Lake Ian,CO,90152,United States
Garciabury,MA,19881,United States
Lake Matthewstad,DE,38111,United States
South Courtneyport,CO,53899,United States
West Justin,NY,56898,United States
Riveraview,KY,38106,United States
East Cynthiaburgh,AK,30594,United States
Adamsport,VT,76683,United States
Port Debra,KS,49718,United States
FPO AA 52611,Unknown Region,52611,United States
Acevedoside,LA,73635,United States
DPO AA 42091,Unknown Region,42091,United States
New Aaron,ID,89274,United States
Martinside,MS,10003,United States
New Kenneth,NE,68890,United States
Russellside,OR,02075,United States
Scottchester,IN,86031,United States
Cassandraton,WY,41438,United States
Susanton,WA,40760,United States
Lynchmouth,SD,40341,United States
Starkfort,SD,95241,United States
Armstrongburgh,NJ,44844,United States
FPO AP 49393,Unknown Region,49393,United States
Maychester,AL,06595,United States
North Melissastad,UT,99039,United States
East Kristentown,AK,58684,United States
Jamesmouth,ME,69527,United States
Jesseton,OH,94212,United States
DPO AE 66145,Unknown Region,66145,United States
Ortegaview,NM,67068,United States
Chavezville,AK,05502,United States
Box 8977,APO,15098,United States
Port Dylan,RI,22175,United States
DPO AE 50767,Unknown Region,50767,United States
Brendafurt,PA,59876,United States
Box 3959,APO,75798,United States
Donaldfurt,ND,21698,United States
Waterstown,WA,09499,United States
New Jamie,NC,32652,United States
Brownbury,IN,56646,United States
Rodriguezbury,OR,06018,United States
Lake Lisa,AK,25749,United States
New Robertstad,DE,66353,United States
Huffmanmouth,PA,27570,United States
East John,AZ,90635,United States
Lake Joe,NH,65810,United States
West Mirandatown,AZ,59637,United States
Port Brianland,SC,46145,United States
Port Justin,DC,28220,United States
Christopherstad,CO,56303,United States
West Kristenshire,GA,17642,United States
North Samuelview,WV,30599,United States
Johnsonfort,CT,80275,United States
Port Michealland,SC,35599,United States
South Taylormouth,AL,39933,United States
DPO AA 96063,Unknown Region,96063,United States
North Nicolechester,SD,65397,United States
New Larryside,HI,36007,United States
New Michael,LA,52634,United States
Hayesshire,LA,28806,United States
Johnsonport,DC,37295,United States
New Markmouth,TX,51494,United States
Lake Nicole,GA,82823,United States
Stephanietown,DC,23184,United States
Perrymouth,KS,08560,United States
Lake Michael,DE,75755,United States
Port Elizabeth,GA,27441,United States
Snyderborough,WV,75425,United States
Jenniferville,OK,52436,United States
Hallmouth,AR,81656,United States
North Kelly,LA,00775,United States
New Marciaville,UT,08959,United States
New Sheilaton,NY,18010,United States
Meredithmouth,WA,77017,United States
Box 2247,APO,43278,United States
East Blake,MS,96221,United States
West Kevinchester,WI,29976,United States
Knightmouth,WI,77730,United States
Brownberg,TX,74257,United States
Mitchellchester,ME,37062,United States
Lake Dustinfort,AZ,41723,United States
Box 4052,APO,50691,United States
Port Matthewhaven,NM,35066,United States
FPO AA 60210,Unknown Region,60210,United States
Kevinstad,FL,14304,United States
Lake Ryan,IN,87365,United States
South Shellyfort,MO,49834,United States
FPO AP 63963,Unknown Region,63963,United States
Kevinfurt,DE,18971,United States
Rodriguezside,LA,39259,United States
Box 6535,APO,03504,United States
New Helen,AK,18517,United States
South Coreyland,NY,62692,United States
Rileyland,AR,92624,United States
West Kirsten,VT,27362,United States
West Eric,MT,92025,United States
New Michelle,MI,91925,United States
New Janiceport,WA,49635,United States
Angelamouth,NY,44491,United States
Brewerbury,OR,02700,United States
Johnside,IL,51100,United States
Port Emilymouth,RI,03375,United States
Greenechester,WY,89198,United States
West Mary,MO,16111,United States
Port Davidport,MT,25768,United States
Francoberg,CO,69031,United States
Nicholsonstad,KY,60946,United States
Millerborough,TX,89783,United States
Timothyfurt,CO,02605,United States
Lake Kristina,MS,32116,United States
FPO AE 75710,Unknown Region,75710,United States
West Ashleyport,GA,35032,United States
North Waltertown,IA,98722,United States
Lake Michelle,SC,42270,United States
Weekston,NC,71247,United States
New Matthewville,MA,30932,United States
West Jamesstad,MO,13843,United States
Hobbsland,NJ,52321,United States
Leebury,MT,24781,United States
Blackfurt,MD,68389,United States
East Robert,HI,00782,United States
Lake Josephchester,NY,55498,United States
Ericafort,GA,84366,United States
Anthonyland,MT,50799,United States
North Jack,MS,42334,United States
Katiefort,WV,63908,United States
East Brittany,OK,53683,United States
New Leonburgh,WA,86933,United States
FPO AP 03668,Unknown Region,03668,United States
Kinghaven,NH,99185,United States
Shealand,WI,56696,United States
Nicholasstad,UT,20365,United States
New Amy,TN,96353,United States
North Kathy,MT,46177,United States
Thomasshire,NH,64182,United States
West Richard,TX,08806,United States
Lake Sandra,SC,28497,United States
Marvinhaven,AZ,01702,United States
Robinton,MI,46904,United States
East Jennifer,VA,32597,United States
Williamsport,ME,79656,United States
Woodshire,ME,46968,United States
Michaelbury,MI,98701,United States
North Pedroview,MI,35962,United States
Norrisfort,MA,04010,United States
Jamesberg,WY,59779,United States
Box 9671,APO,36166,United States
North Crystal,AL,65518,United States
East Kennethfort,IA,10221,United States
Karenfort,FL,48629,United States
Jacksonborough,MD,44975,United States
East David,MA,79305,United States
Williamville,WA,92375,United States
West Stephanieland,NM,07950,United States
DPO AE 68934,Unknown Region,68934,United States
Spencermouth,CA,19206,United States
North Caleb,OK,13632,United States
Lake Heatherbury,UT,78152,United States
West Danielstad,IL,59610,United States
FPO AE 66348,Unknown Region,66348,United States
Howardland,SC,57362,United States
East Susan,KS,70345,United States
Lake Nathaniel,NE,90893,United States
West Aaron,ND,60210,United States
New Nicholasville,MO,68729,United States
Desireebury,IA,11633,United States
Roystad,MA,99241,United States
New Wesley,AL,98001,United States
South Joshuastad,SD,34213,United States
South Jordanstad,CA,64942,United States
Conniebury,RI,07174,United States
West Matthewchester,NE,60209,United States
Fosterfurt,IN,66215,United States
Nelsonhaven,NH,44208,United States
West Brandyhaven,TX,00989,United States
North Dakotachester,OH,16291,United States
Lake Barbaraside,AK,40048,United States
Port Megan,AZ,08355,United States
Lake Michellebury,RI,39078,United States
East Jodyside,NH,20282,United States
West Jacob,CT,61572,United States
Port Shawna,PA,81221,United States
Walkerton,MO,23528,United States
Franklinland,NC,12479,United States
Ryanbury,MI,18635,United States
Charlesville,IA,89543,United States
Lake Stephaniefort,MN,70988,United States
North Amandachester,NY,95960,United States
West Dianaburgh,RI,13218,United States
Justinburgh,ID,53377,United States
DPO AP 75299,Unknown Region,75299,United States
Shannonburgh,PA,03401,United States
East Vanessa,CT,68668,United States
Charlesstad,NV,93300,United States
Lake Michaelbury,CA,46749,United States
South Jamiechester,UT,17858,United States
Duncanhaven,NC,68477,United States
Pierceview,CO,51034,United States
New Glenville,HI,08073,United States
Lake Mason,DC,31816,United States
East Robert,NV,33942,United States
South Josephberg,NM,61766,United States
Zoeborough,NE,13116,United States
South Kelsey,CA,92042,United States
Meghanside,LA,05285,United States
Petersside,IL,22686,United States
Melissaville,TX,82309,United States
East Madison,NM,92815,United States
Martinland,NE,15450,United States
Port Patricia,MA,88107,United States
FPO AP 87514,Unknown Region,87514,United States
Lake Keithmouth,WY,93725,United States
Ochoahaven,CA,64238,United States
Port Bradley,WV,79357,United States
Pricemouth,NM,35858,United States
Lake Susan,LA,18668,United States
Lanetown,FL,54895,United States
DPO AP 07930,Unknown Region,07930,United States
West Lisaborough,OR,45963,United States
Lauraview,WI,29447,United States
Vanessastad,AK,68197,United States
FPO AA 40918,Unknown Region,40918,United States
Box 9853,APO,65668,United States
Lake Briana,OK,37735,United States
FPO AE 56634,Unknown Region,56634,United States
Payneton,NH,24672,United States
North Scottside,VT,80963,United States
East Jessica,TN,55335,United States
Port Kristinmouth,AR,09862,United States
Michaelborough,NE,18866,United States
Robinsonfurt,LA,50423,United States
Bradleyton,SD,67662,United States
Lake Elizabethshire,CA,36807,United States
East Zacharychester,LA,78126,United States
Pattersonville,SD,71483,United States
North Michael,NC,49692,United States
Box 9951,APO,85575,United States
West Justinberg,NJ,81337,United States
East Tylermouth,WY,93433,United States
East Robert,DC,71451,United States
Matthewview,MS,59141,United States
Lake Amyville,MA,61412,United States
DPO AP 03075,Unknown Region,03075,United States
Carolland,IA,86128,United States
Port Roseport,WY,11830,United States
Davischester,NJ,32494,United States
FPO AE 71141,Unknown Region,71141,United States
North Michaelton,VA,83124,United States
South Alyssa,WI,83859,United States
Lake Ronaldhaven,NC,99377,United States
Hinesstad,TX,56050,United States
Justinstad,UT,28466,United States
East Steven,DE,93645,United States
West Katherine,NC,60960,United States
Dillonburgh,IL,60130,United States
Brendachester,ME,85511,United States
Kimberlyside,IN,88183,United States
Trevinochester,AK,24644,United States
East Brianfort,NE,35262,United States
Allisonville,PA,89026,United States
Lisaland,MN,72502,United States
Lake Kristinshire,WY,89019,United States
North Jeffrey,WV,89464,United States
South Jamesport,OH,71150,United States
Amandashire,AZ,65739,United States
South Pedro,CT,40425,United States
Daymouth,ID,41533,United States
East Marctown,LA,93939,United States
Port Laura,TX,42976,United States
Danielsmouth,MO,39121,United States
West Debraborough,WI,92890,United States
Samanthafurt,OR,50976,United States
Bartonberg,PA,07410,United States
West Pamela,SD,97427,United States
Port Jeffreyview,WV,84676,United States
Brendaberg,NE,32888,United States
New Aaronside,AR,83690,United States
East Martinburgh,NM,13350,United States
FPO AA 59177,Unknown Region,59177,United States
Morrisberg,KY,33163,United States
Port Virginia,IA,12254,United States
Cynthiaview,DC,07844,United States
West Angelaland,MT,65011,United States
Carrieland,IN,08534,United States
East Donnastad,PA,99360,United States
South Alexandra,ME,44307,United States
Clarkeberg,TN,60307,United States
Bakerton,VA,36929,United States
Robertstown,OR,49508,United States
Cartermouth,MD,40339,United States
Jennashire,AK,95117,United States
DPO AE 72042,Unknown Region,72042,United States
North Justintown,AL,57527,United States
DPO AP 28596,Unknown Region,28596,United States
Holtbury,ND,71254,United States
Smithborough,KY,51477,United States
Lake Melindatown,IL,04296,United States
North Heather,MN,11211,United States
Mannmouth,VA,69801,United States
Melissaburgh,AZ,46595,United States
Lake Tiffanyfort,VA,42405,United States
East Isaac,ME,82883,United States
South Jasonbury,TN,40612,United States
FPO AE 19602,Unknown Region,19602,United States
Lake Tracy,RI,26216,United States
Brittanyfurt,IL,48184,United States
FPO AA 09150,Unknown Region,09150,United States
Lake Nicolemouth,IL,01883,United States
Port Vincent,CA,58812,United States
Courtneyfurt,CT,96485,United States
Jillshire,CO,20360,United States
Brittanyburgh,PA,86805,United States
New Derrick,NC,33326,United States
New Jesse,ME,52382,United States
West Melissa,DC,19432,United States
Ericaburgh,RI,85045,United States
Port Jacob,NM,17683,United States
Box 2357,APO,96647,United States
FPO AE 02991,Unknown Region,02991,United States
North Mary,FL,39652,United States
Tristanchester,NH,66594,United States
Sharpmouth,OK,31330,United States
West Martinfurt,MS,45513,United States
South Matthewport,AZ,13919,United States
New Deannastad,DC,74291,United States
South Reneeton,CO,90093,United States
Danielfurt,MS,38870,United States
Holmesville,MS,93948,United States
Leeview,MD,87668,United States
West Jacob,IN,03302,United States
East Madisonport,MS,91447,United States
Davisfurt,TN,33794,United States
Cathyfurt,MD,43565,United States
East Taylorshire,NM,88501,United States
South Debraland,OR,27703,United States
Angelatown,DE,25511,United States
Richardport,OR,56819,United States
West Amyfort,MO,72360,United States
Parkberg,DE,06588,United States
Steventon,ND,37123,United States
South Elizabethstad,CA,38041,United States
Amandafort,DC,02844,United States
Georgeburgh,AR,62844,United States
Shawnport,ID,19526,United States
Johnmouth,MI,88072,United States
Lewisstad,IL,40865,United States
West Heathermouth,AZ,71469,United States
Christophertown,CA,60944,United States
Harrishaven,MO,61872,United States
New Tinafort,MS,95262,United States
Box 9319,APO,02712,United States
Lake Laura,UT,14677,United States
West Brianview,NV,79253,United States
East Jerome,NH,09219,United States
Lake Aliciaport,ND,69904,United States
New Beth,NH,81500,United States
New Kendraburgh,NH,86603,United States
Box 9289,APO,38005,United States
Emilyside,IL,50143,United States
Port Kimberly,ND,60780,United States
Port Angelahaven,OK,32883,United States
Michaelchester,NE,13428,United States
Armstrongport,OK,11050,United States
Keithmouth,KY,65721,United States
West Danielview,RI,37453,United States
North Matthewberg,DE,30839,United States
South Marissastad,MD,47749,United States
Port Joelburgh,CO,65295,United States
Gallegosport,MO,63132,United States
East Emily,NH,44338,United States
Loriview,WA,38700,United States
Rodgersview,AZ,82720,United States
Coxburgh,NJ,30071,United States
Michaelview,WY,35391,United States
North Stephanie,WI,55443,United States
FPO AE 74011,Unknown Region,74011,United States
Campbellview,UT,44727,United States
Glennville,LA,19115,United States
Dianaborough,MD,97796,United States
Michaelview,KY,17418,United States
New Peter,SC,45670,United States
South Patrickport,FL,33868,United States
North Patriciahaven,RI,23261,United States
Cooperview,TN,79795,United States
Jonathanshire,OK,96789,United States
West Juliaton,NC,03424,United States
West Patrick,IN,28795,United States
Velazquezland,DC,56166,United States
Box 5879,APO,35727,United States
New David,OH,41156,United States
Freemanland,ND,71041,United States
Joantown,ND,07869,United States
New Lauren,NE,37380,United States
East Daniel,MS,12396,United States
Fowlerland,NJ,68185,United States
FPO AP 77752,Unknown Region,77752,United States
North Traceyshire,VT,76589,United States
Nathanstad,DC,25007,United States
New Rachaeltown,TX,31105,United States
North Williamchester,GA,73890,United States
North Jacob,NH,72992,United States
South Kennethshire,MI,39012,United States
Paulside,TN,22695,United States
Lake Amandaburgh,SD,52541,United States
Port Dylanside,FL,57070,United States
West Saratown,AZ,76858,United States
Port Keith,IL,55814,United States
Box 0728,APO,03607,United States
DPO AP 47910,Unknown Region,47910,United States
East Patriciafort,GA,85844,United States
DPO AA 51176,Unknown Region,51176,United States
DPO AA 35285,Unknown Region,35285,United States
East Cameronshire,MI,84268,United States
Nancyville,AL,96655,United States
Johnport,CO,54533,United States
South Amberton,CT,79367,United States
Langhaven,ID,27851,United States
Port Kevin,IA,08239,United States
Lake Cynthia,MO,52810,United States
Port Danaland,SC,96704,United States
Lake Diane,OK,56468,United States
West Wendyfurt,NE,24770,United States
DPO AA 67289,Unknown Region,67289,United States
Port Tiffanymouth,CO,29341,United States
Port Jodishire,NY,27418,United States
Jacksonhaven,CT,35765,United States
New Nathanbury,MS,53454,United States
East Reneeburgh,LA,05263,United States
Markville,SD,47552,United States
FPO AP 12364,Unknown Region,12364,United States
Jameston,MA,66236,United States
North Mary,NM,27617,United States
DPO AE 24536,Unknown Region,24536,United States
DPO AA 86600,Unknown Region,86600,United States
Port Dennis,IA,31992,United States
Wallaceville,SD,14571,United States
Hicksbury,NM,67234,United States
Taylorview,NY,35018,United States
Campbellfort,MI,51073,United States
North Emma,VT,52812,United States
Box 0295,APO,34799,United States
Carterton,NV,17284,United States
Munozmouth,NE,17983,United States
Kruegerside,IA,15307,United States
West Michael,NM,54747,United States
East Brian,AL,93862,United States
West Frank,UT,96475,United States
Port Tiffanytown,AR,05682,United States
East Juan,ND,71490,United States
Hinesshire,RI,60610,United States
Jamesland,IL,95557,United States
Tracyland,WV,88934,United States
East Mariaport,NC,08207,United States
Karenberg,TN,56695,United States
Brianport,HI,05918,United States
New Amanda,NV,19089,United States
South Samuel,AK,28300,United States
Carsonmouth,VT,86086,United States
Box 4240,APO,90359,United States
New Williamberg,AZ,85544,United States
East Kathy,WI,93580,United States
Hallchester,VT,17092,United States
FPO AE 91711,Unknown Region,91711,United States
Devonberg,CO,14862,United States
Hunterside,PA,36783,United States
Leestad,NY,19558,United States
Youngburgh,NJ,27734,United States
FPO AE 24113,Unknown Region,24113,United States
East Taylor,WV,64676,United States
Lake Samanthahaven,WA,94263,United States
East Kimberly,IA,52513,United States
East Tiffanyville,CT,70794,United States
South Angelastad,MO,95386,United States
West Brian,ME,62372,United States
North Cheryl,LA,70003,United States
Abigailville,UT,24158,United States
East Christophermouth,WA,80129,United States
South Martintown,OH,80350,United States
Dennisstad,NV,47904,United States
DPO AA 59447,Unknown Region,59447,United States
Lake Tinahaven,DE,49388,United States
Wallacefurt,PA,93811,United States
Box 0257,APO,17613,United States
South Walterville,LA,57246,United States
Amyfort,NC,40355,United States
Harrymouth,TN,72902,United States
North Adamburgh,MI,20025,United States
DPO AA 78559,Unknown Region,78559,United States
New Nicolemouth,LA,75800,United States
Ronaldside,KY,44415,United States
Rebeccaburgh,OR,96615,United States
Francoburgh,NE,85642,United States
West Nataliefort,NE,82876,United States
Michelleside,UT,28754,United States
West Todd,CT,86199,United States
Port Christopher,MN,88649,United States
North Michaelbury,WY,41424,United States
Alexanderstad,NJ,40833,United States
Box 5890,APO,46908,United States
Cuevasbury,WV,08503,United States
Michaelbury,CO,04513,United States
South Joel,MA,58598,United States
Barnesshire,AZ,27036,United States
New Tyronemouth,HI,50277,United States
Lake Erica,NY,08881,United States
Melissaville,CA,22467,United States
Box 2831,APO,80175,United States
Cynthiachester,UT,28773,United States
Mirandaburgh,MN,73174,United States
East Leeland,VA,74753,United States
Kimborough,NJ,30161,United States
Hallfurt,LA,36238,United States
Lake Erin,MD,82804,United States
FPO AE 40215,Unknown Region,40215,United States
Ashleychester,FL,12627,United States
Lake Brandi,NH,93645,United States
New Anthonyberg,ND,65807,United States
North Michael,LA,11257,United States
East Joyberg,DE,87825,United States
New Faith,NJ,98124,United States
Rebeccaberg,IN,54271,United States
Bowenfort,LA,02317,United States
FPO AP 35409,Unknown Region,35409,United States
Port David,NV,71741,United States
Wayneberg,AL,91231,United States
Greenbury,OK,72266,United States
Craigstad,CO,95711,United States
Lake Nancy,OK,48972,United States
Port Misty,ID,30072,United States
South Jonathan,MI,57461,United States
West Jeanshire,LA,34180,United States
North Daniel,MI,61187,United States
North Jeffrey,MT,84604,United States
Valeriefort,IL,48537,United States
North Pamela,MI,40877,United States
Box 4924,APO,45640,United States
Porterview,DC,86982,United States
Josephton,MI,46780,United States
North Chelsea,IN,13093,United States
South Bryanshire,OK,51910,United States
FPO AE 95213,Unknown Region,95213,United States
New Shannon,TX,48784,United States
West Tylerstad,CA,71321,United States
Rhondachester,WA,50344,United States
FPO AE 97074,Unknown Region,97074,United States
Kimberlyberg,MN,86149,United States
North Derek,DE,66886,United States
Jasonport,RI,16936,United States
East William,UT,28772,United States
Kristaborough,NJ,20785,United States
Adamschester,DC,17691,United States
Sotoport,NC,59129,United States
Port Bruce,OH,76897,United States
Bowmanshire,ID,57180,United States
New Michaelville,UT,16988,United States
Josephborough,UT,15102,United States
West Stephanie,IA,65011,United States
North Dustin,UT,07454,United States
Sherylton,WI,91005,United States
North Jamesborough,TX,90560,United States
Woodton,WA,54268,United States
Elliottton,CA,46892,United States
New Joyce,WY,91837,United States
FPO AP 60082,Unknown Region,60082,United States
Brownport,NC,48026,United States
Woodchester,NC,30821,United States
FPO AE 71022,Unknown Region,71022,United States
South Kaitlyn,TN,15535,United States
Vanessatown,FL,71238,United States
Davisfurt,GA,34995,United States
DPO AP 27469,Unknown Region,27469,United States
Landryhaven,IA,62123,United States
Cynthiaview,MS,19583,United States
Kimberlyside,MO,56416,United States
Billyburgh,AK,34182,United States
South Steven,AL,80836,United States
Port Stefanieville,AZ,90226,United States
North Peter,KS,44734,United States
Lake Annette,IN,52267,United States
East Ralph,AK,22626,United States
West Jeremy,OH,94235,United States
Cherylhaven,NV,41768,United States
Millermouth,OH,84917,United States
New Bruce,MN,85425,United States
Port Shauntown,VT,79639,United States
Ramseyport,IN,60708,United States
Lake Nicholas,WV,45922,United States
South Evanport,CA,33140,United States
DPO AE 25376,Unknown Region,25376,United States
West Daniel,NM,51657,United States
Michaelshire,MN,54395,United States
Ravenberg,CA,14850,United States
Nicoleville,UT,71181,United States
East Nicholas,DE,49921,United States
Jeremyland,MS,02260,United States
FPO AE 94254,Unknown Region,94254,United States
South Jacqueline,SC,91041,United States
Brianborough,AL,62106,United States
Perezchester,RI,19927,United States
Courtneytown,WY,79191,United States
North Victoriaberg,CT,26601,United States
New Kristin,MT,57664,United States
Lake James,TX,69151,United States
Dayville,UT,32246,United States
Johnsonport,TN,67131,United States
Raymondtown,AL,69287,United States
Cunninghamside,KS,73937,United States
Ramirezview,TX,31348,United States
Crystalchester,KY,10279,United States
Bradleyhaven,OR,25702,United States
Port Lisastad,OH,42679,United States
New Alexander,MT,07109,United States
Millerchester,TN,73525,United States
Simpsonstad,WI,42969,United States
FPO AP 64615,Unknown Region,64615,United States
Bryantton,UT,86623,United States
West Joseph,OR,61565,United States
Blakeport,LA,52856,United States
Mendozachester,FL,46475,United States
Josephmouth,SD,87106,United States
South Linda,MN,38581,United States
Cookbury,IL,87463,United States
South Kimberly,SD,55031,United States
Snyderstad,UT,69669,United States
Lawrenceberg,PA,17056,United States
New Duaneville,CT,24848,United States
South Maryfurt,AK,90924,United States
East Matthew,MI,05643,United States
Carmenview,AZ,40331,United States
East Ginaton,DE,28649,United States
Port Josephchester,MI,83727,United States
Ramseymouth,ME,48729,United States
Angelicafort,KS,30599,United States
Zimmermantown,UT,40811,United States
West Mitchell,WY,86145,United States
Port Amy,MN,52510,United States
South Molly,NY,49519,United States
Charleneport,IN,95430,United States
Conradburgh,NH,20589,United States
Port Rachelside,ID,62523,United States
Carrieberg,NY,38375,United States
Anthonystad,NJ,98570,United States
Port Davidmouth,GA,61863,United States
Gregoryside,OH,50847,United States
North Frankborough,NM,84011,United States
West Terri,KY,48689,United States
Jonesfurt,KS,71343,United States
Lake Haley,MD,66705,United States
Rebeccahaven,WA,70929,United States
New Benjamin,HI,96471,United States
North Jamesburgh,NC,83207,United States
Lisatown,CT,14670,United States
FPO AP 71636,Unknown Region,71636,United States
South Susanville,LA,79478,United States
Simpsonside,LA,06860,United States
Port Jeremyland,RI,00714,United States
Greenhaven,DE,34329,United States
Box 7000,APO,06645,United States
North Adam,MO,61182,United States
Waltonport,IA,83482,United States
Box 4550,APO,56480,United States
FPO AA 45808,Unknown Region,45808,United States
DPO AP 17537,Unknown Region,17537,United States
South Scottville,NC,89855,United States
Thompsonburgh,IL,72332,United States
Suzanneville,FL,37568,United States
West Matthewtown,CO,38504,United States
DPO AA 84791,Unknown Region,84791,United States
Mossfurt,WY,96573,United States
FPO AP 73276,Unknown Region,73276,United States
Stephanieburgh,MA,81967,United States
Port Tricia,CO,20571,United States
New Terranceton,VT,83829,United States
West Micheleport,MT,21228,United States
South Tammyland,ND,56294,United States
FPO AA 55905,Unknown Region,55905,United States
Charlestown,MO,42912,United States
FPO AP 30244,Unknown Region,30244,United States
Carterberg,HI,98930,United States
DPO AP 63043,Unknown Region,63043,United States
South Johnland,IN,76434,United States
North Patricia,DE,05527,United States
Port Kristopher,NJ,29175,United States
Smithberg,IL,00662,United States
Alexanderchester,ID,55459,United States
Chavezborough,UT,62342,United States
Jasonchester,ME,70516,United States
FPO AA 77884,Unknown Region,77884,United States
Box 1174,APO,76416,United States
Lake Shawnfurt,MD,91464,United States
Olsonberg,WV,22121,United States
Lake Russellborough,IA,07211,United States
North Charles,CA,84088,United States
East Carolynport,CO,09667,United States
West Christopherton,CO,29205,United States
Port Amy,OR,40639,United States
Obrienburgh,MI,25493,United States
Contrerasborough,MI,42080,United States
Ryanstad,ND,97803,United States
FPO AA 67898,Unknown Region,67898,United States
Box 5091,APO,40863,United States
East Tammyborough,DC,07760,United States
Allenfurt,CA,81876,United States
South Jamesview,IN,56348,United States
New Franciscoberg,KY,94454,United States
Cardenasbury,DC,30492,United States
DPO AA 77267,Unknown Region,77267,United States
New Williamberg,CA,22302,United States
Danielbury,WA,15756,United States
Jeromeland,ID,23597,United States
Anaside,CA,91101,United States
North Vincentside,ID,99852,United States
West Robertfurt,ND,24427,United States
Box 7791,APO,43099,United States
Morachester,TN,98445,United States
Ryanborough,MO,90930,United States
East Robinshire,NV,87554,United States
West Jerry,WA,13432,United States
DPO AE 66172,Unknown Region,66172,United States
North Brittany,DE,16072,United States
East Jenniferfurt,WA,19667,United States
South Michael,CT,24681,United States
South Theresa,MA,61914,United States
Morrisonville,MI,10579,United States
Murphyhaven,NC,58369,United States
Cassandraberg,NV,70231,United States
Lake Brad,MI,14964,United States
Whiteborough,HI,02846,United States
Port Mitchellhaven,IN,85087,United States
FPO AP 82551,Unknown Region,82551,United States
Orozcoshire,FL,29235,United States
Mcdonaldport,AZ,57293,United States
New Mark,IL,08961,United States
New Jessicaside,CT,38305,United States
Kaylaborough,NJ,56973,United States
Ryanshire,ID,09180,United States
North Vickimouth,CO,03917,United States
West Jeffrey,CT,49508,United States
Ronaldfort,OH,78734,United States
East Travisville,MI,60831,United States
Lake Noahville,ND,10727,United States
Juliehaven,MI,90113,United States
Snowview,NV,72798,United States
Lake Jeremiah,NM,74094,United States
Simonfurt,DE,35634,United States
Fosterville,MI,37684,United States
New Glennburgh,VT,31800,United States
DPO AP 50946,Unknown Region,50946,United States
Ramirezview,TN,38661,United States
FPO AP 66397,Unknown Region,66397,United States
Gilberthaven,SC,25101,United States
Webbchester,WV,00704,United States
Chapmanburgh,NM,85752,United States
South Jacquelinehaven,NM,96513,United States
North Christianborough,UT,91028,United States
West Janefurt,OR,22982,United States
South Stacy,ID,43036,United States
North Tiffanytown,MI,96140,United States
Port Kyle,AR,47389,United States
North Mary,CA,46156,United States
New Tammyland,PA,00656,United States
West Nichole,SC,71777,United States
Andrewburgh,IL,06231,United States
Leonardmouth,OR,69253,United States
Kennethshire,AK,79704,United States
West Dana,NE,86183,United States
Port Amanda,IL,73554,United States
Hannahbury,MS,61569,United States
New Samantha,MI,32376,United States
Vincentmouth,AL,52637,United States
DPO AA 89411,Unknown Region,89411,United States
South Kristinashire,RI,74751,United States
Fullerstad,UT,69599,United States
Lawrencefort,AL,87097,United States
West Scottport,RI,86711,United States
Brianfort,IN,51668,United States
Douglasland,OK,30449,United States
Port Jennifer,MI,96850,United States
Corymouth,FL,11319,United States
Port Sophia,FL,65097,United States
Christyberg,AK,11261,United States
New Jonathanton,AR,88233,United States
FPO AA 27533,Unknown Region,27533,United States
Angelaville,IN,73707,United States
Lake Abigailburgh,AZ,49886,United States
Stephenfurt,KS,63664,United States
Hernandezstad,OR,40046,United States
Geraldberg,WV,97821,United States
DPO AA 99000,Unknown Region,99000,United States
Box 6424,APO,87180,United States
Jensenchester,NV,56803,United States
Billytown,CT,00984,United States
Manningchester,LA,17795,United States
Mosleyhaven,TN,63077,United States
South Kirk,NV,12079,United States
Lake John,UT,71985,United States
Spencebury,WA,41627,United States
FPO AP 41048,Unknown Region,41048,United States
Lake Deborahborough,OH,65743,United States
Port Jonathan,LA,70738,United States
West Susanfurt,NJ,99059,United States
North Richard,VA,31441,United States
Jenniferton,MN,05410,United States
FPO AP 22223,Unknown Region,22223,United States
Annaburgh,SC,74452,United States
Alexistown,IL,61088,United States
Michellemouth,KY,02205,United States
Sanchezburgh,WY,35908,United States
Stevensside,SD,16376,United States
Jensenmouth,IL,57586,United States
Morrisburgh,MD,70151,United States
Port Ericmouth,NM,12793,United States
South Victoria,MT,48520,United States
East Timothyport,SD,13448,United States
Gibsonport,DC,41097,United States
Michellebury,WV,75178,United States
Johnland,WI,22552,United States
North Robertoport,ME,03851,United States
West Craig,VT,94989,United States
East Robert,SC,84319,United States
East Sandra,MD,14377,United States
Angelton,OK,90977,United States
New Robertfurt,DC,17591,United States
Stephaniehaven,MO,80404,United States
Port Charles,IL,00847,United States
Lake Michaelmouth,KS,10375,United States
West Brandonport,OR,76706,United States
South Rachelberg,TN,47020,United States
FPO AE 94243,Unknown Region,94243,United States
Rebeccamouth,MS,40300,United States
Lake Abigailport,CO,53363,United States
Dawnstad,CT,20150,United States
Cookport,MO,85943,United States
West Kathryn,MS,38987,United States
North Meganbury,KS,36148,United States
Ronniemouth,LA,02479,United States
Jeremystad,MA,14799,United States
Scottport,MN,62855,United States
North Paul,WV,56810,United States
East Nicholaschester,NY,85546,United States
East Davidton,IA,11371,United States
Theodorefurt,VA,33914,United States
FPO AP 38377,Unknown Region,38377,United States
North Jeff,OH,25583,United States
Moralesmouth,DE,19385,United States
Lisafurt,WV,16181,United States
Richardsberg,MI,73360,United States
South Sara,ID,61085,United States
Port Margaretview,DC,99789,United States
Wigginsburgh,DC,13227,United States
Kyleland,NY,63896,United States
Davidmouth,VT,66365,United States
East Kyle,HI,80939,United States
Jonesburgh,ID,76053,United States
Emmaburgh,ME,06665,United States
New Kathleen,ID,43510,United States
Robertview,NJ,47247,United States
Davidmouth,AZ,18672,United States
Lake April,ND,98823,United States
Jenniferville,VA,93106,United States
New Brianburgh,VT,03641,United States
Myershaven,WY,23638,United States
East Stacey,FL,44385,United States
East Stephaniefort,WY,72095,United States
Brittneyside,TX,67095,United States
West Ryan,TX,64269,United States
Kristinville,MI,05293,United States
Seanport,IN,85936,United States
Lake Denise,IL,46080,United States
Stephensonchester,WV,41329,United States
Lake Sherryview,DC,53168,United States
Lake Mark,WY,06498,United States
West Williamland,DE,36917,United States
North Catherine,NH,26165,United States
Nicholastown,MI,97193,United States
New Ricardo,MT,55260,United States
Lake Dylan,WV,21381,United States
Heatherbury,WY,44792,United States
East Stephen,MD,37867,United States
Oliviachester,NC,25796,United States
North Martin,ME,42829,United States
DPO AE 78383,Unknown Region,78383,United States
Vaughnberg,WY,13329,United States
West Cheryl,OK,03750,United States
South Bobbymouth,AZ,01124,United States
New Lisa,NE,63657,United States
Johnburgh,NC,31523,United States
Jonesport,FL,21080,United States
East Jenniferville,WI,80535,United States
South Sarahchester,MS,02950,United States
North Dennis,MA,43877,United States
Alexisland,AK,07066,United States
New Stephanieville,RI,40931,United States
West Kennethside,NH,49449,United States
North Kelly,AZ,95055,United States
Thomasstad,NE,84235,United States
South Victoriaview,ID,69245,United States
New Tylerhaven,FL,07857,United States
Murphychester,OK,56908,United States
West Teresa,NE,87477,United States
New Jimmymouth,ID,30068,United States
Ibarraland,NV,67419,United States
West Alexandermouth,NV,43179,United States
Wrightbury,NH,02518,United States
Floreschester,GA,52988,United States
Davidville,ND,51760,United States
DPO AP 46584,Unknown Region,46584,United States
Lake Brianchester,NH,32157,United States
East Kathryn,LA,96842,United States
West Cindyburgh,SD,03387,United States
East Tammy,LA,01081,United States
South Jenny,MO,32278,United States
Wrightfurt,MI,79046,United States
South Kimberlychester,IL,37265,United States
Brandonton,KY,46034,United States
New Stacytown,AL,23896,United States
East Seanfort,DC,31862,United States
Dillonside,CT,46449,United States
FPO AE 44149,Unknown Region,44149,United States
South Adam,MN,54276,United States
South Joyce,MI,22883,United States
Laurabury,OK,09582,United States
Smithhaven,GA,97761,United States
North Shannonside,OR,51581,United States
Mullenberg,MA,64313,United States
East Zacharyberg,WV,35078,United States
Bryanbury,ID,68210,United States
Lake Jason,OK,04649,United States
Angelshire,RI,21571,United States
Brianfort,MT,25175,United States
West Robertberg,UT,41834,United States
South Calvinville,MT,64825,United States
Heatherberg,ID,84150,United States
Box 6803,APO,29972,United States
New Crystal,FL,93452,United States
Kelseymouth,AK,26740,United States
Steeleshire,MI,87816,United States
East Shanestad,CO,25599,United States
Gillshire,KS,94002,United States
Lake William,KY,64251,United States
Martinmouth,NY,98366,United States
Box 1270,APO,13731,United States
FPO AE 62231,Unknown Region,62231,United States
Jeffreyfort,VA,53683,United States
New Jamesmouth,OH,34529,United States
Suttonfurt,AZ,76310,United States
South Jonathan,IA,93500,United States
Sheltonfort,PA,63551,United States
Crystalview,IA,99037,United States
South Connieburgh,NC,50336,United States
Lake Joseph,ME,11396,United States
Margaretmouth,OK,26713,United States
Sarahstad,VA,17384,United States
Leestad,MA,31342,United States
East Brandy,CT,36287,United States
Knighttown,NM,47954,United States
DPO AE 08203,Unknown Region,08203,United States
Port Sarah,TN,57649,United States
South Carmen,MD,79214,United States
Sydneyland,VT,90116,United States
Stephanieton,NH,24575,United States
East Lisa,MT,56434,United States
East Laurenview,ID,60763,United States
Jamesberg,SC,67033,United States
Kruegerside,IA,25983,United States
Jasonville,LA,13879,United States
Fernandezland,TX,20606,United States
Lake Daniellemouth,AR,04627,United States
Alexanderview,WV,06223,United States
Nicolasstad,ND,95569,United States
Douglasside,LA,34277,United States
South Amber,WI,84272,United States
Katelynmouth,TN,82416,United States
FPO AE 48206,Unknown Region,48206,United States
Lopezfort,TX,30144,United States
Edwardsborough,KS,31245,United States
North Nichole,OK,39400,United States
FPO AP 75511,Unknown Region,75511,United States
Moralesmouth,RI,91405,United States
Port Zachary,OH,70510,United States
North Barbaramouth,CA,83372,United States
East Tamibury,NM,96326,United States
North Matthew,TN,14037,United States
Schultzborough,CO,93836,United States
West Davidshire,MA,81226,United States
Jonesshire,AK,37251,United States
North Dennisside,MN,29518,United States
Lake Derek,WV,37634,United States
DPO AP 81593,Unknown Region,81593,United States
East Johnview,ME,69804,United States
West Wayne,NV,63830,United States
Melodyberg,WA,53798,United States
Samanthaburgh,DE,08585,United States
FPO AP 90657,Unknown Region,90657,United States
Mooreshire,GA,42972,United States
FPO AP 62287,Unknown Region,62287,United States
Riveramouth,LA,39269,United States
Jimmystad,MI,72895,United States
Jenniferstad,MA,88600,United States
FPO AA 44879,Unknown Region,44879,United States
New Cynthia,VA,78782,United States
DPO AA 83479,Unknown Region,83479,United States
Allisonbury,IA,66830,United States
South Donaldborough,IA,17663,United States
Allisontown,RI,63575,United States
Lake Jon,CA,46386,United States
Ruizshire,CT,91882,United States
Mackfurt,MD,58971,United States
Langberg,ID,64383,United States
Lake Gary,SD,63478,United States
Danielchester,WA,85859,United States
Port Wesley,GA,86987,United States
Lake Patrick,WA,86396,United States
Rojasmouth,KS,94169,United States
North Jessicahaven,MT,63273,United States
Millsstad,IL,81499,United States
Johnsonberg,MN,18261,United States
Box 3431,APO,49692,United States
Port Michael,CA,69452,United States
Allisonbury,ND,14700,United States
New Randall,AL,96249,United States
West Robert,DC,79755,United States
New Jonathan,KS,87888,United States
Kevinshire,IL,29001,United States
West Catherine,IA,00594,United States
Andrewchester,WY,34478,United States
Justinborough,WA,04743,United States
New Emily,NH,04417,United States
North Carrie,WA,01187,United States
East Davidmouth,WI,89550,United States
Moralesmouth,MA,06414,United States
DPO AP 90308,Unknown Region,90308,United States
Box 7237,APO,23435,United States
New Joelfurt,MI,88967,United States
West Rachel,DE,26805,United States
New Andrewport,AR,52904,United States
Jamesburgh,NJ,16575,United States
Debbieton,WV,15960,United States
West Leslie,ND,47329,United States
Grahamberg,IL,45567,United States
South Teresa,MT,38848,United States
Lake Brian,ND,54909,United States
DPO AA 38873,Unknown Region,38873,United States
Payneville,NY,67695,United States
East Jessica,OR,10187,United States
Weberfurt,TN,14458,United States
Blackwellport,TX,36794,United States
New Raymond,NJ,22928,United States
East Mark,WA,34456,United States
Gentryside,OR,89990,United States
Amberberg,ND,47250,United States
South Derekfort,NV,81509,United States
Fitzpatrickbury,IN,50531,United States
Beckville,PA,11791,United States
Travisshire,VA,10943,United States
East Markland,WY,09885,United States
Brianchester,AK,12198,United States
North Jefferymouth,TN,00689,United States
West Samanthaberg,ME,90847,United States
Port Davidland,ND,15359,United States
East John,VT,01851,United States
New Sarahberg,AR,49303,United States
FPO AE 38704,Unknown Region,38704,United States
Jasonfort,HI,39420,United States
South Natalieburgh,NE,95366,United States
Justinton,MI,12697,United States
North Angela,AR,76262,United States
Lake Kristy,WY,42374,United States
Port Brenda,MS,86427,United States
Katherinetown,IA,37383,United States
Box 8381,APO,27049,United States
Box 0378,APO,33276,United States
Hansenborough,RI,63506,United States
Barnesport,CA,08243,United States
East Mark,WV,76344,United States
Braunhaven,SC,27198,United States
Port Rachelberg,IA,81338,United States
Loganshire,IL,41476,United States
FPO AA 22657,Unknown Region,22657,United States
Lake Mario,IL,55639,United States
Schmidtmouth,NY,44528,United States
Donnachester,NV,66760,United States
North Cristian,UT,07460,United States
Lake Julia,RI,19404,United States
New Christopherburgh,AK,99523,United States
Box 5225,APO,43272,United States
Lisastad,AR,01709,United States
New Gregory,VA,32081,United States
West Andrewhaven,MS,97858,United States
South Vanessachester,MN,49792,United States
Laurenshire,KY,09947,United States
South Willieville,OH,87403,United States
Loriborough,MS,49756,United States
Lake Charles,CO,40976,United States
Lake Michael,WV,90321,United States
Lorifort,NY,67065,United States
Amandamouth,SC,55827,United States
Garrettmouth,DE,80867,United States
Lake Keith,UT,47339,United States
North Robert,NC,08528,United States
Markville,OR,52945,United States
New Kristenview,AL,23115,United States
Villaburgh,NM,31609,United States
Lake Sandraberg,MD,36159,United States
Sandraburgh,DE,90179,United States
Webbfurt,MN,62932,United States
New Janet,VT,75008,United States
Bartletthaven,IL,16670,United States
Gilbertmouth,CA,28623,United States
Lake Luishaven,ID,74058,United States
South Dawn,AL,26569,United States
Lake Cheryl,TX,74359,United States
Michaelport,NH,32949,United States
West Danielle,CA,24666,United States
West Timothy,IL,07056,United States
Karenland,OH,52992,United States
Port Danielberg,NV,10705,United States
North Gary,AL,96287,United States
South Jimtown,NC,16741,United States
Lewisbury,ND,79593,United States
New Sethstad,IN,82388,United States
North Jennifer,DC,95109,United States
Port Davidhaven,UT,78899,United States
South Joseph,GA,79383,United States
North Tammy,SD,66883,United States
Farleyberg,OK,30096,United States
Port Christopherfort,NJ,88465,United States
Port Preston,TN,88287,United States
Wilsonville,MS,95824,United States
Nealhaven,OR,16462,United States
Hamiltonside,ID,26188,United States
Kathrynfort,AR,22166,United States
New Billyfurt,VT,59601,United States
West Andrewmouth,AZ,06882,United States
South Rachel,VT,31051,United States
New Victor,WI,37374,United States
Rileyville,WV,62479,United States
Kimmouth,GA,10565,United States
Steelebury,NH,80488,United States
Lake James,OK,16774,United States
East Johnport,IA,10692,United States
South Melvinchester,KY,17450,United States
North Tiffanyfort,TN,54479,United States
New Laura,IA,89372,United States
Davismouth,GA,23934,United States
West Ericville,KY,42338,United States
Box 6381,APO,90858,United States
Woodfort,IN,57009,United States
New Dawn,LA,64226,United States
Port Joshuafort,IL,36456,United States
East John,NY,12668,United States
DPO AE 88568,Unknown Region,88568,United States
Lake Ashley,NV,64919,United States
South Thomaschester,MN,91321,United States
North Christianborough,ME,99223,United States
Lake Daniel,IA,55226,United States
DPO AA 57107,Unknown Region,57107,United States
Port Jacqueline,TX,62894,United States
East Kathrynstad,RI,65452,United States
Rebeccaton,WY,69624,United States
Lake Angelicaview,FL,21192,United States
Edwardmouth,MA,87870,United States
FPO AA 62567,Unknown Region,62567,United States
Rodgersfort,MA,12857,United States
South Jenna,HI,08860,United States
North Jessicaton,RI,87967,United States
West Cynthiafurt,SD,32254,United States
Michealchester,OH,85350,United States
New Malik,LA,77792,United States
Danielberg,MS,91235,United States
DPO AA 61189,Unknown Region,61189,United States
New Felicia,NV,22059,United States
Pattersonmouth,AR,99295,United States
West Melissa,CO,53975,United States
Kristiborough,GA,17459,United States
West Jennifer,MA,03971,United States
New Robertburgh,NH,52352,United States
Michaelport,CA,11428,United States
North Kevinmouth,AL,91394,United States
New Roberttown,AZ,27234,United States
Gregorymouth,TX,29429,United States
Jeffreytown,SC,31689,United States
Evanmouth,MA,18655,United States
Robertchester,VT,00573,United States
FPO AE 33604,Unknown Region,33604,United States
Melissaberg,WY,61871,United States
Lake Leslie,RI,49739,United States
South Darrellchester,CA,74124,United States
DPO AP 11319,Unknown Region,11319,United States
South Brenda,LA,35921,United States
Box 6248,APO,23841,United States
Fishermouth,NH,16270,United States
West Charlesmouth,ND,39462,United States
Jessicaport,FL,61947,United States
Nancybury,KY,38430,United States
New Kennethview,MI,06470,United States
South Claudiaside,VT,32611,United States
Danielsville,TX,42321,United States
South Nicole,AK,29743,United States
Robinsonbury,MT,90449,United States
Johnsonshire,CA,01288,United States
DPO AE 86668,Unknown Region,86668,United States
North Kristin,NJ,22718,United States
Port Terrymouth,AR,15966,United States
South Jamesshire,SD,82696,United States
Tammyton,ND,27459,United States
Ericaberg,NE,07867,United States
North Candice,WV,61902,United States
Burtontown,RI,84089,United States
North Victoria,NH,21139,United States
East David,LA,74632,United States
South Erin,MO,64395,United States
Crystalshire,IN,21413,United States
Davischester,VT,88909,United States
Josephhaven,NY,74352,United States
Lake Deniseshire,OK,79368,United States
Adamburgh,IN,84156,United States
Port Traci,AR,53385,United States
North Joshuaberg,ID,94971,United States
South Blake,ND,88722,United States
Stevenside,MO,23170,United States
Nicholefort,MN,92374,United States
Jonesfort,MD,49619,United States
Lopezfurt,WI,21820,United States
West Jorgemouth,TX,20050,United States
Patriciachester,KY,27869,United States
North Marisaland,AZ,43306,United States
North Catherine,AL,50450,United States
West Jill,WY,80761,United States
DPO AE 91470,Unknown Region,91470,United States
Port Christophermouth,AR,11611,United States
Box 7247,APO,20133,United States
New Kristiland,MO,54107,United States
Annettefort,UT,88347,United States
Josephview,AK,40744,United States
Moorehaven,TN,37420,United States
Brendachester,CA,63017,United States
West Dorothybury,KS,66765,United States
Nicholstown,MI,14686,United States
New Chadton,MN,13959,United States
West James,KS,27500,United States
South Christopherberg,WI,60276,United States
Pagechester,MD,52301,United States
New Scott,MN,47381,United States
Jamesstad,NC,62490,United States
Port Joemouth,IA,80255,United States
FPO AE 88553,Unknown Region,88553,United States
New Elijahfurt,SC,85992,United States
North Josemouth,OH,17013,United States
Lake James,WV,56387,United States
Robertshire,WY,59820,United States
West Saraland,DC,51721,United States
North Christinaberg,WA,84092,United States
New Andrea,GA,27682,United States
Port Veronica,WI,94730,United States
Keithmouth,NE,34051,United States
FPO AA 87786,Unknown Region,87786,United States
Dickersonborough,IA,31398,United States
Maloneberg,AK,51487,United States
Doughertystad,PA,22005,United States
Wuchester,SD,69088,United States
Sanchezstad,VA,87126,United States
Gonzalezberg,CT,95147,United States
Elizabethstad,OK,10297,United States
Josephland,LA,53448,United States
Lake Edwardville,DE,63582,United States
Michelefurt,IN,74552,United States
North Matthewchester,WI,18199,United States
East Amandachester,OH,44635,United States
Lauriebury,NY,07109,United States
Stevenmouth,WA,75086,United States
Timothyland,MI,92094,United States
Lake Alexandra,WI,87184,United States
Baileyberg,WY,05060,United States
East Adam,LA,94283,United States
North Bethland,NH,59637,United States
Jenkinsport,ND,20022,United States
FPO AP 97031,Unknown Region,97031,United States
Jenniferhaven,LA,06784,United States
Marthafort,NH,15751,United States
South David,WI,23084,United States
North Samanthaland,FL,13001,United States
FPO AP 32991,Unknown Region,32991,United States
Lake James,ID,05483,United States
Lake David,AK,43335,United States
Lake Briana,NH,74050,United States
Box 6398,APO,30061,United States
DPO AP 52656,Unknown Region,52656,United States
East Marytown,MT,80119,United States
Box 7897,APO,91258,United States
Lake Angela,KS,80128,United States
East Harry,MS,46913,United States
Port Sherry,NE,19242,United States
Lake Lawrenceton,WA,60487,United States
Port Brad,MS,05224,United States
Lake Peter,AZ,93832,United States
Woodmouth,AZ,10638,United States
West Johnfort,WI,64941,United States
Box 8219,APO,45494,United States
New Stephanie,NV,52068,United States
South Brianhaven,MS,56928,United States
Rebeccastad,ME,71264,United States
South Johnshire,LA,28599,United States
West Seanview,RI,11770,United States
Osbornetown,WY,16047,United States
Jamesfurt,CO,68701,United States
North Andrea,WI,62431,United States
East Carrie,NM,19496,United States
Pageside,DC,09506,United States
Buchananfurt,NH,11489,United States
Tammyberg,DC,29515,United States
Lynchton,IN,61853,United States
East Daniel,DC,79342,United States
Higginsfurt,IL,35042,United States
South Jeffrey,NE,16633,United States
Dillonton,VA,71826,United States
Lake Timothy,TX,34566,United States
South Anthony,AL,33653,United States
Martinside,GA,95279,United States
Kelleymouth,KS,47148,United States
East Dawnside,MN,21555,United States
Herreraland,GA,88346,United States
West Jeremy,WV,17418,United States
Port John,ME,05512,United States
West Yvonne,NH,99727,United States
New Andrea,ND,65548,United States
South Wandachester,VT,03228,United States
South Davidfurt,NY,64209,United States
Box 8184,APO,33957,United States
Williamsfurt,OH,18385,United States
Marthaberg,MN,82808,United States
Port Carrieberg,NM,61510,United States
South Sabrinafort,IN,70816,United States
East Scottview,CA,98401,United States
Evelynstad,IL,04444,United States
West Trevorland,CA,35725,United States
Willistown,MN,98547,United States
West Latoya,NV,25497,United States
Port Sergiohaven,SC,71349,United States
West Jessica,IA,27076,United States
Juliafort,VA,78070,United States
Newmanfort,AZ,52458,United States
Phillipton,DC,05753,United States
Katherinefort,OH,61322,United States
New Walter,NH,97042,United States
Jamesbury,SD,97124,United States
Box 9809,APO,11573,United States
Hudsonton,VT,65433,United States
Cheryltown,HI,38252,United States
Lake Alison,MD,33757,United States
Tylerville,AZ,27118,United States
Lake Sara,ND,62302,United States
Whitetown,OH,69742,United States
DPO AP 55530,Unknown Region,55530,United States
Lake Tony,WI,98501,United States
Box 0835,APO,03978,United States
West Gary,HI,45670,United States
Port Meganview,SD,88791,United States
Michellemouth,OR,20351,United States
DPO AP 12961,Unknown Region,12961,United States
South Amandaburgh,NH,59610,United States
New Jessicatown,VA,68377,United States
Zhangville,GA,71978,United States
Smithshire,DE,78311,United States
Williamstown,CT,81410,United States
Gallagherhaven,OR,42032,United States
Oconnorchester,DC,70800,United States
New Matthew,MS,21355,United States
Smithberg,CA,29747,United States
Patrickside,SC,01346,United States
North Jackieland,DE,36532,United States
Brookston,WI,30540,United States
South Megan,GA,11307,United States
Lake Heathermouth,MO,09154,United States
West Bryan,NH,43742,United States
FPO AE 15418,Unknown Region,15418,United States
FPO AP 08092,Unknown Region,08092,United States
South Jessicafurt,AK,65443,United States
Timothyshire,WY,54981,United States
Port Robertchester,IL,90350,United States
Kellyland,ID,43799,United States
Meghanfurt,NV,62416,United States
Sharpmouth,WY,56218,United States
Karenport,TX,84308,United States
DPO AA 24869,Unknown Region,24869,United States
South Daniel,OR,78452,United States
Box 2534,APO,55208,United States
Mollyside,VT,85210,United States
Dominguezland,DE,43622,United States
New William,KS,01355,United States
North Amanda,SD,64670,United States
Edwardsview,MI,74679,United States
West Carlos,HI,22327,United States
Box 0691,APO,75295,United States
Stantonstad,VA,77399,United States
West Daniel,NJ,49054,United States
Priceport,WI,27489,United States
DPO AA 60282,Unknown Region,60282,United States
South Janiceville,VT,13142,United States
Michaelborough,SD,92368,United States
Larsonview,OH,92119,United States
Batesland,MI,37966,United States
Stevensfurt,WV,30607,United States
West Christopherburgh,MT,35812,United States
Jameston,FL,54519,United States
Marilynport,VA,42629,United States
South Jenniferville,DC,78537,United States
West Brian,WY,11750,United States
FPO AA 79841,Unknown Region,79841,United States
Jenniferbury,KY,28999,United States
South Loribury,CA,94202,United States
Garrettmouth,LA,80503,United States
South Charlesfurt,TN,58385,United States
DPO AA 53328,Unknown Region,53328,United States
Gaymouth,AK,16291,United States
Riveramouth,CT,53418,United States
East Scott,NM,30278,United States
East Diamond,NY,26814,United States
DPO AP 95263,Unknown Region,95263,United States
Howellstad,NV,93435,United States
Mayhaven,OR,21448,United States
Hoffmanport,NJ,75334,United States
Spencertown,NC,58992,United States
Matthewport,NC,09381,United States
New William,DE,04161,United States
Sandersville,NC,42599,United States
Larrychester,AR,56591,United States
Box 7514,APO,70961,United States
Port Karen,DC,95799,United States
New Ronald,NJ,59362,United States
Port Markside,ND,59353,United States
East Andrew,IA,59361,United States
Josephville,HI,08707,United States
FPO AP 82124,Unknown Region,82124,United States
West Dennis,GA,20329,United States
West Ashleyburgh,VA,67590,United States
West Joshua,CA,53391,United States
North Johnfurt,AZ,17422,United States
New Andrea,MI,49074,United States
New Williamchester,RI,72280,United States
Richardbury,TN,32388,United States
Greenberg,NC,75734,United States
Bellville,MD,22943,United States
Mcgeeland,VA,17843,United States
Colefort,MN,71870,United States
New James,NV,29802,United States
Port Lori,NH,64954,United States
FPO AA 86249,Unknown Region,86249,United States
FPO AE 89339,Unknown Region,89339,United States
New Hannah,ME,34820,United States
Troytown,UT,88993,United States
West Sarah,IA,54453,United States
South Dennis,MD,25072,United States
Nataliestad,ID,64369,United States
North Kimberlyside,IA,39382,United States
New Patrick,MA,84291,United States
Floresstad,MD,27316,United States
Lake Claudiamouth,VT,22433,United States
FPO AE 14648,Unknown Region,14648,United States
West Jeremyshire,HI,58733,United States
South Jenniferborough,ND,70518,United States
Carlyborough,MA,14651,United States
Port Aaronstad,VT,17780,United States
Jonesberg,NV,71822,United States
Morrisland,VA,86357,United States
Jennashire,NH,22695,United States
New Lisachester,KS,89486,United States
Elizabethland,AR,40156,United States
New Timothyville,NC,68749,United States
Lake Danny,NC,20202,United States
South Daniel,NE,54280,United States
East Charleschester,WA,39670,United States
Mariatown,MI,18994,United States
New Ralph,VA,73845,United States
North Vicki,NC,36679,United States
Ginachester,SC,28934,United States
South Eric,CA,97236,United States
North Kelly,ID,65824,United States
East Ronaldport,NH,57914,United States
Owensland,NC,02365,United States
New Daniel,IN,45941,United States
FPO AP 10963,Unknown Region,10963,United States
DPO AE 49144,Unknown Region,49144,United States
Stevenmouth,LA,37347,United States
New Frederickberg,DE,17924,United States
Derektown,WY,24397,United States
Natashaland,WV,43791,United States
Robertsonhaven,VA,41739,United States
DPO AA 91196,Unknown Region,91196,United States
Ninabury,MA,30991,United States
North Jasonfort,NH,60299,United States
Andreafurt,AK,99824,United States
East James,CT,82763,United States
Osbornmouth,TX,55968,United States
Box 1783,APO,44149,United States
South Kimberly,AZ,53031,United States
Craigchester,ME,14157,United States
Nataliehaven,MO,57185,United States
Jordanburgh,NM,99863,United States
Walkerstad,AK,80235,United States
Port Robert,ID,76119,United States
South Ricardo,CA,82443,United States
West Jason,IN,30797,United States
New Renee,AK,47246,United States
West Matthewfort,MI,66593,United States
Port Kathrynport,WI,54151,United States
Bradleyhaven,CO,21872,United States
East Morganborough,CT,08166,United States
Joycemouth,IN,23782,United States
Kimberlyport,ME,71022,United States
Samanthabury,SD,79507,United States
DPO AA 38768,Unknown Region,38768,United States
East Dianahaven,KS,98195,United States
Michellefurt,NJ,57609,United States
Robertsonland,AL,15820,United States
East Bradley,SD,96474,United States
Underwoodmouth,WY,17770,United States
South Darrellville,MN,22544,United States
East Charlesmouth,AL,89900,United States
Port Jasonton,NJ,10382,United States
Johnborough,IL,26566,United States
North Patrickton,HI,33875,United States
Lake Melissa,CA,49653,United States
New Bryanview,NE,99295,United States
Rodriguezshire,KS,26316,United States
West Mackenzie,WI,83206,United States
Port Kathryn,OH,36047,United States
Muellertown,PA,97554,United States
Port Michaelside,AR,72114,United States
DPO AE 52306,Unknown Region,52306,United States
New Phillip,TX,27295,United States
Hardyport,MD,43719,United States
Newmanchester,WI,16441,United States
Seanchester,IL,50411,United States
Whiteshire,CT,54203,United States
North David,AL,50777,United States
Connorshire,SD,03068,United States
North Melissaborough,KS,79268,United States
North Nancy,NM,82731,United States
New Robin,AL,25708,United States
Box 8459,APO,30544,United States
Port Jennyhaven,SD,93667,United States
East Scottborough,MO,06013,United States
Sharonville,NC,16271,United States
Francisside,MO,68721,United States
Vaughnborough,NY,65831,United States
Port Christinefurt,NM,78455,United States
Tracymouth,TN,27775,United States
North Amandaton,CO,39993,United States
North Ronald,NV,38448,United States
Lake Juanfurt,NC,66656,United States
Williamtown,AR,98035,United States
DPO AP 90552,Unknown Region,90552,United States
Fosterchester,NY,20358,United States
Lake Timothy,MO,66141,United States
Sabrinaport,MN,23846,United States
Callahanview,AZ,03425,United States
East Elizabethport,GA,66595,United States
Deniseland,MI,22778,United States
Lewismouth,NE,15187,United States
West Christine,NJ,23173,United States
FPO AP 75400,Unknown Region,75400,United States
South Paul,MO,67678,United States
Brownfort,KY,31039,United States
Brendaland,NC,45921,United States
West Christineton,IA,59765,United States
East Andrewstad,NE,77000,United States
Patriciastad,SC,65298,United States
Port Laura,HI,58248,United States
Port Kristen,VA,09350,United States
Port Timothyview,ID,98264,United States
East Martin,SD,26701,United States
Kristinview,AK,52501,United States
DPO AE 36736,Unknown Region,36736,United States
DPO AA 65270,Unknown Region,65270,United States
Torresview,RI,25769,United States
FPO AP 11487,Unknown Region,11487,United States
West Deborah,TX,06781,United States
Bradleybury,WA,43314,United States
Carolynmouth,WY,60627,United States
Port Raven,MD,23819,United States
Millerstad,NV,25025,United States
Port Johnfurt,PA,59658,United States
Barnestown,CT,88013,United States
Martinezchester,FL,30324,United States
North Kelly,NH,90328,United States
Lake Patriciaborough,OK,85006,United States
Quinnfurt,ID,58700,United States
Lake Christina,NY,67360,United States
East Yvonne,OK,32102,United States
FPO AE 31031,Unknown Region,31031,United States
Mayoberg,ND,77226,United States
Bruceside,PA,52130,United States
FPO AA 78863,Unknown Region,78863,United States
Kimberlyshire,RI,24860,United States
West Robertfort,ME,91748,United States
Port Bethanyview,HI,50477,United States
Port Diana,NE,57529,United States
Buckleyborough,NE,98568,United States
North Kristine,RI,64151,United States
North Dianaville,MT,39924,United States
Jacksonfort,LA,73218,United States
FPO AE 79282,Unknown Region,79282,United States
Lake Nathanberg,CO,49129,United States
Elliston,VT,81428,United States
Cooleyfurt,NM,81789,United States
DPO AE 84719,Unknown Region,84719,United States
Lake Evan,IN,80284,United States
Meyerport,MN,76482,United States
Port Chelseashire,ID,98432,United States
Port Ryan,VA,64603,United States
Zacharyborough,PA,27798,United States
Pamelafurt,ID,22028,United States
West Joshualand,HI,21966,United States
Box 7177,APO,02172,United States
Salinasborough,AR,85152,United States
Heathermouth,LA,63826,United States
Port Briannaland,NJ,51843,United States
South Micheal,IN,39443,United States
South Thomasville,MA,23904,United States
Burnsshire,OR,14025,United States
Destinyport,LA,98454,United States
Bradleystad,NY,38384,United States
DPO AE 27775,Unknown Region,27775,United States
North Rebeccamouth,OR,58492,United States
West Derek,ME,54357,United States
East Frankport,WV,30774,United States
Kerriton,DC,83657,United States
Lake Dakota,HI,06296,United States
West Elizabethborough,AK,30489,United States
South Evanborough,MT,54927,United States
West Amy,CO,22735,United States
Alanview,AR,79280,United States
Anthonyberg,WV,82556,United States
FPO AP 59278,Unknown Region,59278,United States
West Bryan,CO,88588,United States
Patrickshire,NC,37829,United States
Brandonhaven,ME,75182,United States
FPO AP 04750,Unknown Region,04750,United States
Anthonyberg,DE,82456,United States
Port Garretthaven,UT,20720,United States
Ramirezchester,ND,43963,United States
Leblancburgh,FL,47658,United States
DPO AP 51666,Unknown Region,51666,United States
Johnsonberg,FL,71348,United States
Clarkland,HI,11683,United States
Huntshire,TN,65904,United States
West Beth,NC,19623,United States
Dawnhaven,MA,34205,United States
Nicholasside,VA,97317,United States
Kristyborough,IA,14482,United States
Brycetown,CO,63381,United States
DPO AA 87852,Unknown Region,87852,United States
Travismouth,UT,73101,United States
Box 4615,APO,18239,United States
Margaretborough,VT,14653,United States
Emilyview,NV,87870,United States
DPO AE 15768,Unknown Region,15768,United States
Garnerborough,AZ,89800,United States
South Karen,SD,11571,United States
East Reginaldmouth,KS,95508,United States
West Tammy,MS,62756,United States
New Brandonstad,SC,67271,United States
New Jason,MS,22643,United States
FPO AE 83309,Unknown Region,83309,United States
Sharonburgh,TN,93635,United States
South Johnbury,CO,44274,United States
Harrisstad,MA,69778,United States
North Teresa,PA,31659,United States
Weissfurt,IA,02973,United States
Lake Melissa,NH,08249,United States
South Crystal,NC,22050,United States
Jonesland,NH,16977,United States
Lake Julie,LA,45016,United States
New Lisamouth,NM,52363,United States
Jennafurt,OK,64042,United States
Lake Steve,VT,41311,United States
Gibsonburgh,RI,75747,United States
Port Mariah,FL,97966,United States
Anitashire,DE,17813,United States
Port Danieltown,WY,91518,United States
East Candaceshire,LA,98269,United States
FPO AP 53039,Unknown Region,53039,United States
Port Dominique,CA,15576,United States
Port Maryport,FL,02500,United States
Acostabury,LA,92213,United States
Alvaradoburgh,AK,36803,United States
New Ashleyland,MN,09573,United States
South Rachelstad,DC,21549,United States
Joshuamouth,OH,92017,United States
New Sarahhaven,MD,11280,United States
Reidfort,WV,62293,United States
New Stephenshire,AK,16531,United States
Durhamhaven,ND,66721,United States
New Melinda,MS,72360,United States
Mahoneyfort,MO,76441,United States
Bakerton,WY,83239,United States
Wallerbury,CT,34440,United States
East Williamfort,OH,19140,United States
Tammyshire,ID,09118,United States
Lake Martin,MI,84761,United States
Port Joseph,NV,08409,United States
South Stephanieland,ID,59513,United States
Sarahport,MO,34990,United States
Christinachester,IN,62685,United States
Davidsonland,AZ,14589,United States
Seanburgh,AZ,00736,United States
East Laurenfurt,MD,77111,United States
East Theresa,VA,85083,United States
South Robertburgh,AL,02028,United States
East David,WV,47533,United States
New Kimberly,NY,15930,United States
Jamesport,CA,63970,United States
South Aprilchester,UT,80627,United States
Jenniferport,MI,67126,United States
Anthonymouth,VA,20998,United States
Christinaland,OR,86124,United States
Josephfurt,IN,24557,United States
Port Matthewborough,SD,52511,United States
Wilsonfurt,MD,46177,United States
Amandaton,KS,59751,United States
West Dawnside,HI,38826,United States
Pittschester,MO,89178,United States
Port Robinberg,WA,16660,United States
North Kathryn,NM,93073,United States
South Suzanne,AK,94896,United States
North Sarah,NH,98330,United States
North Melissa,GA,16574,United States
Mcgrathland,MS,42954,United States
East Lindsay,IN,31432,United States
Lake Matthew,ND,78923,United States
Lake Derrickview,IA,54428,United States
Sosamouth,MA,26159,United States
FPO AA 75958,Unknown Region,75958,United States
FPO AA 02431,Unknown Region,02431,United States
FPO AE 70689,Unknown Region,70689,United States
Cassandrachester,AK,10789,United States
South Randyhaven,MS,50235,United States
New Amandahaven,AR,28875,United States
Matthewberg,MT,06468,United States
Wolfeland,AL,46408,United States
Deanview,NC,86535,United States
East Cynthiaview,IL,53792,United States
West Kathryn,NC,74183,United States
Lake Kaylastad,ME,49580,United States
South Donna,ID,92479,United States
FPO AE 14596,Unknown Region,14596,United States
Lake Alyssa,MD,39271,United States
Martintown,NM,99872,United States
Lake Megan,NM,15269,United States
Tanyaport,TX,70831,United States
Adamsberg,MN,67064,United States
Kellyhaven,ID,63463,United States
West Misty,ID,91176,United States
West Bonnieport,WY,14336,United States
Watsonview,IL,34190,United States
Box 6568,APO,11689,United States
Gomezville,MS,29620,United States
Wilsonmouth,AZ,50317,United States
Braunton,KS,99166,United States
Port Curtis,OH,82693,United States
Lake Vincent,OK,03376,United States
Villegasborough,NE,36445,United States
West Kelly,WA,13072,United States
Freemanbury,NV,16453,United States
Nancytown,AR,39495,United States
Port Johnmouth,CA,24359,United States
Smithfurt,TX,23267,United States
Blackbury,SD,74994,United States
East Natasha,NE,50081,United States
North Thomasville,OR,56837,United States
Lake Tracy,MT,90209,United States
North Elizabethmouth,VT,02376,United States
North Mary,NM,22077,United States
East James,MS,68271,United States
Elizabethville,IA,53384,United States
South Sarah,GA,63793,United States
Jonesside,KY,53816,United States
Louisfurt,MS,60453,United States
FPO AA 43537,Unknown Region,43537,United States
Port Michellefurt,OK,72842,United States
FPO AP 45792,Unknown Region,45792,United States
Walkertown,AZ,97917,United States
Orozcoton,CA,56247,United States
FPO AA 29959,Unknown Region,29959,United States
New Kennethberg,VT,87314,United States
Catherinemouth,ND,82463,United States
East Rubenmouth,FL,18216,United States
North Christine,AK,84143,United States
Lake Angela,MI,81671,United States
Zacharytown,IN,43595,United States
East Philipburgh,MN,37932,United States
North Edgar,IN,27953,United States
Gonzalesburgh,ND,88965,United States
Hardychester,MN,08005,United States
Andersenview,UT,11887,United States
Samanthafurt,TX,70551,United States
Lake Dawnfurt,GA,23581,United States
Millsberg,CA,15083,United States
Edwinmouth,MS,78621,United States
Richardborough,PA,02951,United States
North Anthonyshire,MA,87737,United States
Port Tracymouth,MD,09210,United States
Box 2051,APO,29591,United States
East Marie,KY,17026,United States
Thompsonton,TX,59987,United States
East John,MA,20309,United States
Lake Lisa,AZ,83280,United States
FPO AP 07008,Unknown Region,07008,United States
East Robertaberg,NJ,83005,United States
FPO AE 40582,Unknown Region,40582,United States
West Jon,SC,49842,United States
Lake Ryan,MD,06406,United States
South Marissaport,HI,28070,United States
Ericport,SC,50764,United States
FPO AE 43587,Unknown Region,43587,United States
Lawrenceland,ID,29190,United States
North Stevenville,NH,25452,United States
New Kelly,VA,48306,United States
FPO AE 23028,Unknown Region,23028,United States
East Michellemouth,DE,24385,United States
Chambersfurt,ND,78529,United States
Jeanettehaven,AZ,02390,United States
Medinamouth,WI,53430,United States
Port Chad,LA,58733,United States
Michelechester,IN,78277,United States
Lake Ashleyview,WV,86823,United States
West Lisa,WY,97093,United States
Manuelhaven,IA,28653,United States
East Denise,CT,79015,United States
Box 8565,APO,78892,United States
East Ronaldbury,CT,23776,United States
North Frank,MN,95096,United States
New Melissa,SC,46272,United States
Melissamouth,VT,65797,United States
Gonzalezview,CA,83710,United States
West Jennifer,ND,94784,United States
Lake Michelle,KS,39600,United States
Clineberg,TX,80957,United States
South Andrew,AZ,23504,United States
Rickystad,WV,29973,United States
Diazmouth,UT,38032,United States
Michaelside,GA,70273,United States
Taylorstad,WY,75112,United States
Box 6311,APO,13155,United States
Johnfurt,MD,59330,United States
Smithtown,HI,87038,United States
Cynthiafurt,MD,94296,United States
Port Angel,DE,21703,United States
Wendyhaven,SD,39744,United States
Woodstown,TX,51442,United States
North Jessica,WI,12982,United States
Leonardview,IN,92140,United States
Millerberg,CA,71133,United States
Matthewsland,AZ,44261,United States
Diazborough,VT,55068,United States
Christophertown,AL,90817,United States
South Laurabury,AL,67104,United States
FPO AP 56211,Unknown Region,56211,United States
South Gregory,MT,03501,United States
New Jessicashire,RI,09709,United States
Lake Joseph,SD,38872,United States
Cobbton,CT,82146,United States
Baileyton,RI,47135,United States
Port Deborahside,SD,38519,United States
Raymondfurt,GA,74074,United States
Michaelberg,AK,42191,United States
New Amy,OR,46585,United States
New Kennethfurt,MO,68585,United States
Allenburgh,OR,63213,United States
FPO AP 87991,Unknown Region,87991,United States
Christopherchester,VA,17632,United States
Gonzalezmouth,MT,98011,United States
Port Michaelton,AK,97608,United States
North Lorifurt,MS,92145,United States
Port Nicholasborough,LA,88092,United States
DPO AP 04684,Unknown Region,04684,United States
Johnsonside,PA,36682,United States
Christinashire,HI,62908,United States
Tammybury,MO,40111,United States
South Ericborough,MI,50221,United States
Garciabury,AL,47529,United States
Vazquezberg,CO,75244,United States
DPO AA 83850,Unknown Region,83850,United States
Catherinemouth,NM,89224,United States
East David,AL,95779,United States
Nguyentown,HI,74763,United States
West Shari,VA,50576,United States
East Linda,WV,99485,United States
DPO AE 16348,Unknown Region,16348,United States
Hendersonshire,MT,19690,United States
Port Lisaton,NH,07419,United States
East Nicole,CT,06379,United States
Sabrinaside,MS,56953,United States
Johnfurt,DC,48063,United States
Whitefurt,KY,55977,United States
Shariville,NY,24958,United States
Washingtonfort,GA,28592,United States
Taylorport,NM,80340,United States
Ashleyside,AL,28370,United States
West Angela,FL,09115,United States
West Nicholasburgh,ND,64768,United States
East Josephton,NJ,37855,United States
Lewischester,OR,40929,United States
East Rachelfurt,NJ,58054,United States
Lake Ann,WA,91348,United States
New Christy,TX,35851,United States
Rodriguezborough,RI,58865,United States
North Davidmouth,GA,61392,United States
New Christophermouth,ND,02526,United States
South Charlenefurt,NM,58430,United States
East Stacey,NE,34413,United States
Bryantburgh,AK,64934,United States
New Bethanyton,NY,06779,United States
Wolfburgh,CO,50129,United States
Port Mary,WY,44299,United States
Deannaland,OR,15930,United States
Port Robertbury,MS,28029,United States
Spencerland,OR,71839,United States
DPO AA 89214,Unknown Region,89214,United States
West Christinafurt,UT,24833,United States
Garciamouth,CA,52085,United States
Jonathanhaven,OH,11781,United States
DPO AE 58682,Unknown Region,58682,United States
Lanceport,FL,63463,United States
Matthewbury,MO,88755,United States
West Brittany,NH,28015,United States
New Sylvia,MS,80555,United States
South Morgan,AZ,04838,United States
Mccarthystad,SD,18399,United States
Rebeccafurt,MO,28786,United States
North Alexisview,MN,15445,United States
West Jennifer,RI,93211,United States
South Rachel,DE,66882,United States
Lake Bethtown,CA,33667,United States
Michaelland,KS,43913,United States
Henryport,WA,50896,United States
Drakeburgh,TX,70131,United States
South Ronaldmouth,SD,79277,United States
Geoffreyside,OH,76332,United States
FPO AE 98115,Unknown Region,98115,United States
Lake Jennamouth,FL,85447,United States
Emilychester,AR,67017,United States
West Jenniferton,ME,27025,United States
East Heatherburgh,IL,40024,United States
DPO AA 66129,Unknown Region,66129,United States
North Tiffany,MA,42194,United States
DPO AE 95420,Unknown Region,95420,United States
Lake Deborah,SC,57837,United States
New Barbaraberg,MI,03808,United States
North Monica,PA,63894,United States
North Michael,HI,43703,United States
Velazquezstad,FL,01926,United States
North Beverlyhaven,NE,65417,United States
Port Natashaland,IN,75822,United States
Hoodmouth,VT,42904,United States
East Matthew,NJ,44483,United States
East Kevinmouth,WI,50140,United States
Piercefurt,HI,93290,United States
Reynoldsstad,AZ,69975,United States
South Ginamouth,LA,17806,United States
New Jamesport,HI,46535,United States
Jacksontown,MA,04177,United States
Terrymouth,MA,48452,United States
Jerryview,CA,40554,United States
South Karen,VT,87213,United States
East Raymond,NE,36511,United States
Meganville,CA,88707,United States
South David,MS,80660,United States
Morrismouth,DC,49513,United States
West Andrewside,TX,72201,United States
Katieport,RI,87827,United States
Port Chrisland,MN,48859,United States
New Daniel,WY,99486,United States
Cookport,HI,50390,United States
Christinaton,HI,17409,United States
Davismouth,TX,52213,United States
Port Audrey,FL,31144,United States
Foxmouth,ND,45234,United States
Jamesside,PA,68973,United States
Woodfort,CA,77245,United States
West Michelefort,TX,40335,United States
South Kevin,CO,41017,United States
Drewport,WY,74301,United States
Box 7261,APO,25927,United States
Lindashire,WA,14296,United States
Lake Michaelside,CO,73566,United States
North Paul,DE,42366,United States
Terrishire,NY,99833,United States
Whiteshire,VA,77640,United States
Howellberg,GA,93290,United States
Alejandrofurt,KY,33771,United States
North Benjaminland,SC,62326,United States
Lake Zacharymouth,SC,92265,United States
West Frankburgh,OK,94095,United States
Lake Matthew,NY,14741,United States
FPO AP 50400,Unknown Region,50400,United States
Edwardville,CT,53331,United States
East Kenneth,NY,88553,United States
South Michael,GA,05182,United States
DPO AE 48637,Unknown Region,48637,United States
Markmouth,WA,71324,United States
North Kevin,UT,05414,United States
Christopherside,UT,75746,United States
FPO AA 20295,Unknown Region,20295,United States
Perryshire,CA,61784,United States
East Jennifer,VA,90838,United States
North Martin,KY,09302,United States
South Tinamouth,SC,77116,United States
North Danielle,UT,74160,United States
Michelleview,WY,04898,United States
Jenniferbury,WA,76038,United States
Austintown,NJ,87210,United States
Lynchborough,NE,43395,United States
Port Michelleburgh,SC,88062,United States
Lozanoton,CO,69630,United States
New Stephenhaven,NH,32864,United States
DPO AE 72276,Unknown Region,72276,United States
Walkerport,DE,29941,United States
Vasquezfort,ME,65239,United States
South April,CO,79437,United States
DPO AE 25808,Unknown Region,25808,United States
Jennaside,DE,31512,United States
Deckertown,WV,91596,United States
Humphreyshire,LA,60299,United States
New Kellyhaven,VA,00767,United States
Karenview,MD,19904,United States
Tammybury,OK,76740,United States
Murphyfurt,NY,38899,United States
Comptonville,IL,25279,United States
Port Oscar,UT,38415,United States
Lake Courtneyhaven,HI,66719,United States
Burkeport,NH,77579,United States
Stephaniemouth,NV,16159,United States
Lake Tamara,NC,40768,United States
East Kirkland,SC,32000,United States
Lake Tyler,HI,06401,United States
West Brandonland,DE,29697,United States
Martinezstad,TN,97910,United States
Box 3474,APO,64241,United States
East Kennethshire,MO,34809,United States
Port Justin,DC,42092,United States
FPO AE 88235,Unknown Region,88235,United States
Terrychester,WA,26109,United States
Walterland,MA,75828,United States
West Kayla,CT,29899,United States
West Christopher,RI,07213,United States
Trevinohaven,OR,08208,United States
Gibsonhaven,CO,92381,United States
FPO AE 55550,Unknown Region,55550,United States
East Chasechester,NJ,02386,United States
North Lindsayburgh,FL,48362,United States
Butlermouth,AK,33000,United States
North Alexanderfurt,MN,12376,United States
Gonzalezmouth,MA,80080,United States
Cathyview,SC,33388,United States
Box 4688,APO,58304,United States
Aprilburgh,NJ,22592,United States
Lake Johnshire,NC,63701,United States
Lake Elizabethfurt,RI,82897,United States
Kyleborough,MS,24381,United States
Williamsmouth,AK,57753,United States
Brownchester,SD,79063,United States
Harrisfort,UT,87222,United States
Kristopherfort,LA,45971,United States
North Chrismouth,SC,25635,United States
West Desiree,OR,61605,United States
Jamieland,NM,51128,United States
Taylorberg,SD,22348,United States
Lake Anthony,KY,32717,United States
East Jonathanbury,NY,90266,United States
Lake Shawnville,IA,14618,United States
Keithchester,RI,69354,United States
New Adam,FL,26264,United States
Gonzalestown,MN,60415,United States
Brandyborough,OK,59711,United States
North Zachary,WV,55310,United States
Tanyamouth,SD,30468,United States
New Jeffreychester,SD,39877,United States
North Thomas,TX,16173,United States
Kimberlyborough,AK,02921,United States
FPO AE 55864,Unknown Region,55864,United States
South Williammouth,AK,98228,United States
Sotoport,LA,13877,United States
Clinefurt,SC,34630,United States
Royborough,ME,60023,United States
Henryville,MT,92160,United States
Lake Timothy,TN,89486,United States
New Miguelville,OR,87846,United States
Lake Jeffrey,WI,50997,United States
Port Jenniferland,AK,28580,United States
North Hollyshire,TX,63844,United States
Chandlerbury,WV,45513,United States
FPO AA 16539,Unknown Region,16539,United States
FPO AA 59643,Unknown Region,59643,United States
New Madeline,NY,68736,United States
Lake Angelaberg,WY,09193,United States
Lake Christianchester,AR,88927,United States
East Lori,MO,67622,United States
Bakerton,ME,48172,United States
Leeville,PA,59392,United States
East Kristina,UT,17146,United States
Kevinmouth,CA,17222,United States
Lake Randybury,WY,12648,United States
Katiefort,RI,31747,United States
Port Alexa,WV,34791,United States
Tonyaport,OK,54063,United States
Lake Elizabeth,AK,87639,United States
East Donnaside,OK,16735,United States
East Cynthia,FL,22847,United States
East Janetshire,TN,52637,United States
West Angel,MT,68080,United States
South William,MA,97870,United States
Barnesmouth,NM,07852,United States
Gardnerstad,GA,10421,United States
East Lori,IA,68561,United States
Johnsonstad,TN,18515,United States
Palmerport,WY,91713,United States
Lake Kimberlytown,MI,29981,United States
Port Amystad,MI,89952,United States
West Latoya,MN,48860,United States
FPO AA 64350,Unknown Region,64350,United States
FPO AA 90285,Unknown Region,90285,United States
Box 2921,APO,57851,United States
North Philip,MT,59729,United States
New Andrew,CO,63131,United States
North Rebecca,NY,31525,United States
West Jennifermouth,WA,61024,United States
Rebeccaview,ND,07053,United States
Douglasside,FL,08422,United States
New Kevintown,WI,96752,United States
Troyhaven,NM,37912,United States
DPO AP 81616,Unknown Region,81616,United States
New William,HI,62939,United States
South Jennifer,NM,45806,United States
Mckaymouth,AL,50461,United States
Burkechester,AL,74144,United States
Donland,WV,29439,United States
Rebekahburgh,MA,33142,United States
Allisonland,FL,52108,United States
Lake Stephanieland,KS,24177,United States
Lake Arthur,ND,49520,United States
South Michael,NY,46448,United States
FPO AE 02162,Unknown Region,02162,United States
Box 9046,APO,48375,United States
Theresafurt,WY,07302,United States
North Jacobville,MO,91285,United States
Penabury,WV,90306,United States
Berrychester,NE,09774,United States
South Amytown,NM,75720,United States
Lake Jeromeport,SC,47345,United States
West Cesar,MI,66660,United States
New David,NM,07877,United States
Adamsmouth,NC,93083,United States
Wandabury,CT,91041,United States
North Frank,WV,43615,United States
New Janiceton,NH,20753,United States
Charlesfort,NH,24671,United States
North Julia,LA,54157,United States
Kimberlybury,CA,82492,United States
New Brandonberg,NE,52339,United States
North Rose,AK,81262,United States
East Jeffrey,DC,84328,United States
South Amberburgh,OR,54305,United States
Bellbury,NC,21735,United States
Lake Blake,IL,10594,United States
New Emily,OK,48497,United States
Box 1712,APO,33586,United States
North Kayla,KY,71223,United States
East Robin,MN,13911,United States
Port Makayla,MI,34102,United States
Jackbury,AR,00757,United States
West Brenda,NE,19336,United States
Lake Tonyfurt,NC,70637,United States
North Joel,NJ,56815,United States
Vargasmouth,RI,74851,United States
Weberchester,OK,90960,United States
Box 5394,APO,78962,United States
Desireestad,LA,77830,United States
Jeffreyview,SC,57909,United States
Donaldfurt,MS,89632,United States
Diazton,GA,48336,United States
North Meganland,SD,82501,United States
Coreyfurt,NH,25956,United States
North Daniel,WV,20194,United States
Shannonmouth,NM,42507,United States
FPO AE 78167,Unknown Region,78167,United States
Valeriemouth,MT,42866,United States
North Scottshire,KS,71414,United States
New Jameshaven,NH,51669,United States
Thomasport,UT,27732,United States
New Patriciastad,MN,96800,United States
Port Christinemouth,SC,47189,United States
Lake Emilyfort,DC,71786,United States
Stephanieview,IN,76057,United States
Lake Cassidy,MN,59825,United States
Lake Brettville,NY,29705,United States
Williamsside,OK,84214,United States
Juliashire,AK,57507,United States
Garciamouth,WA,15181,United States
North Erika,WY,99705,United States
South Joshua,NY,24432,United States
Hillmouth,KY,26076,United States
Margaretchester,DC,05873,United States
DPO AP 08969,Unknown Region,08969,United States
South Kimberly,NV,41237,United States
South Michael,DC,87317,United States
Jenniferville,OR,85411,United States
Terryport,VA,69030,United States
East Marie,ID,55731,United States
East Ashleyshire,MD,78435,United States
Bassmouth,IN,24229,United States
Port Shannonhaven,IN,08230,United States
Gregoryton,ME,62028,United States
Nathanberg,UT,25684,United States
Josephshire,TN,49565,United States
Peterhaven,NE,33524,United States
Johnhaven,NY,42864,United States
Wrightburgh,UT,64115,United States
South Paula,MT,68603,United States
Smithstad,TX,86965,United States
North Elizabeth,WI,61353,United States
South Krystalbury,ND,42098,United States
Kingchester,MS,72594,United States
Thomashaven,KY,83734,United States
Stewartshire,PA,55915,United States
West Nancyburgh,RI,73162,United States
Riveraland,OH,52951,United States
Shepardfort,AL,28837,United States
South Matthewstad,IN,47193,United States
East Tiffanyville,AL,77353,United States
Port Allisonton,GA,20573,United States
Julianberg,CO,49668,United States
South Johnshire,HI,38112,United States
New Samantha,DC,85035,United States
Paulport,VT,70486,United States
East Joshua,AK,85130,United States
DPO AP 37854,Unknown Region,37854,United States
Warnerville,AZ,45550,United States
North Crystal,UT,04170,United States
Mejiamouth,VT,04971,United States
Box 6523,APO,02529,United States
Box 0132,APO,59459,United States
Johnsonville,CT,19881,United States
Tannertown,NV,27804,United States
Staciechester,NM,61647,United States
Lonniemouth,PA,82819,United States
New Tylershire,MT,76392,United States
North Michael,IA,47690,United States
Randallmouth,IA,37974,United States
Box 6162,APO,87773,United States
Jacquelineton,OH,66792,United States
Carlosside,NC,93050,United States
Donaldtown,NH,03743,United States
Kennedyfort,RI,45809,United States
Port Ashleytown,NE,50525,United States
Jefferyville,WA,77436,United States
South Keithburgh,OK,15762,United States
Amberview,SD,04908,United States
Port Jenniferville,TN,68497,United States
Port Maria,NE,91496,United States
Chelseafurt,IA,23533,United States
South Ashleystad,ID,14699,United States
Dianaville,NC,82080,United States
FPO AE 99492,Unknown Region,99492,United States
Box 7002,APO,47460,United States
West Thomas,NH,35779,United States
East Shaneborough,NE,77765,United States
Susanberg,VA,91958,United States
West Nicolemouth,NE,30750,United States
FPO AA 92470,Unknown Region,92470,United States
Martinburgh,ME,38710,United States
New Scottview,HI,20988,United States
Patriciachester,CA,41833,United States
Chavezmouth,SD,25159,United States
Micheletown,VT,43675,United States
Lake Loriport,IL,84101,United States
Port Sarah,DE,71234,United States
FPO AP 78358,Unknown Region,78358,United States
Navarroport,CO,38564,United States
New Cynthia,TN,66838,United States
FPO AA 77946,Unknown Region,77946,United States
DPO AA 10470,Unknown Region,10470,United States
South Charleston,NV,67763,United States
Port Carriechester,MO,82154,United States
Mezafurt,AK,62369,United States
New Nicholasfort,PA,12993,United States
South Autumn,KS,99842,United States
Kellerside,IL,86991,United States
East John,MD,28914,United States
Kennethstad,MD,99716,United States
West Sarahport,AK,24579,United States
Ramosland,ND,14909,United States
Reidland,NY,69667,United States
South Carlosburgh,SC,49875,United States
Danielville,NY,86407,United States
New Lisaview,IL,64154,United States
DPO AP 21063,Unknown Region,21063,United States
New Alexanderville,WI,10408,United States
Richardsonhaven,CA,46832,United States
Joshuaburgh,MO,78448,United States
Wilkinsonport,DC,24060,United States
Lawsonchester,ID,27678,United States
Port Gloria,KY,16706,United States
Davidburgh,HI,59186,United States
New Joshua,IA,41495,United States
East Michaelmouth,NV,04541,United States
Susanville,NJ,28838,United States
Claudialand,ME,57919,United States
Hannahmouth,UT,43060,United States
Port Carolborough,HI,16587,United States
West Scottborough,KS,57781,United States
Robinsonmouth,NV,86737,United States
Port Annshire,CT,96776,United States
New Mary,IL,76243,United States
Fischertown,AZ,91872,United States
Chapmanfort,MO,73919,United States
Craigstad,KS,25570,United States
Port Bruce,MN,10447,United States
Port Benjaminview,NV,70448,United States
North Nancyview,SD,01055,United States
FPO AE 90280,Unknown Region,90280,United States
South Richardmouth,WV,83622,United States
Lake Edwin,NY,47126,United States
Lake Paula,VA,92345,United States
New Sharonmouth,IA,32965,United States
North Paul,AZ,75418,United States
FPO AA 48194,Unknown Region,48194,United States
Buckport,WV,24546,United States
Lorettafort,TX,34841,United States
Box 8705,APO,24760,United States
Jennifermouth,RI,53665,United States
Nicoleside,OR,03534,United States
Timothystad,LA,21228,United States
Kristenside,TN,77242,United States
Kellyton,LA,96515,United States
South Jeremyfort,WI,59320,United States
Lake Juliahaven,DC,70940,United States
New Jill,WA,16354,United States
Stephentown,SD,37285,United States
Port Williamberg,DC,74294,United States
Pageton,KS,07303,United States
North Traceymouth,OH,66524,United States
New Haleyport,MI,76205,United States
Lake Melinda,VT,08559,United States
Port Laura,ID,51362,United States
Michaelmouth,IA,62915,United States
Ericberg,NE,15035,United States
Box 2467,APO,64804,United States
Ronaldshire,WY,33460,United States
South Carolynmouth,MN,21439,United States
Saraside,CA,81970,United States
Lake Thomasburgh,AL,37774,United States
West Jacob,SD,52039,United States
FPO AP 24208,Unknown Region,24208,United States
Mezaburgh,NM,64349,United States
Thomasfort,CO,39096,United States
South Trevor,RI,45508,United States
Lake Paulland,AL,80989,United States
East Lisa,MS,55868,United States
Robertfort,ID,39895,United States
East Jessica,WI,74657,United States
Hullburgh,LA,20586,United States
Port Jon,ME,04378,United States
Port Robert,MS,08370,United States
South Ronald,CT,45328,United States
Jonesmouth,NC,32080,United States
FPO AA 85929,Unknown Region,85929,United States
South Robertmouth,MD,33994,United States
Michaelside,VA,05032,United States
Petersenchester,PA,28429,United States
East Jennifershire,NY,74755,United States
Jonesfurt,NM,72494,United States
Port Arthur,WV,61003,United States
Youngville,TX,05787,United States
Suzanneshire,SC,40160,United States
West Regina,LA,74637,United States
FPO AP 88189,Unknown Region,88189,United States
South Justinberg,WA,41181,United States
Sophiashire,KY,84441,United States
Elliottland,WA,85015,United States
North Davidland,VA,54633,United States
West George,OR,37426,United States
Port Jamiebury,PA,67115,United States
Lake Christopher,FL,03131,United States
Frankmouth,UT,36231,United States
Mcknightfurt,ID,17110,United States
Judithbury,MI,43972,United States
North Ashley,OH,73631,United States
Lake Scott,NY,43135,United States
Thomasville,CO,02651,United States
West Lindahaven,CO,87434,United States
East Caroline,WV,58143,United States
Box 9518,APO,48542,United States
South Jose,FL,55580,United States
Jonesmouth,LA,20330,United States
Martinezport,CO,87167,United States
Solisside,ME,86287,United States
Lake Davidchester,MN,03560,United States
Nicoletown,AL,44136,United States
Jonesview,AR,34008,United States
North Karenburgh,VA,53603,United States
Shepherdport,MD,19799,United States
Alexanderbury,MD,52119,United States
West Andrewton,CA,67205,United States
Heidiburgh,HI,78970,United States
Kaylastad,WA,55514,United States
Sarahmouth,AZ,66821,United States
Jesusfurt,OH,89315,United States
South Scottchester,AK,85479,United States
Jamesberg,NV,37492,United States
Adamside,GA,85096,United States
Josephton,NY,95925,United States
Port Paul,WY,01358,United States
North Shawnside,KS,21371,United States
Rodriguezberg,AL,78494,United States
Kimberlymouth,MS,70542,United States
East David,NV,25459,United States
Georgeton,NY,56921,United States
Michaeltown,VA,68135,United States
New Melodyville,ND,05023,United States
Michaelberg,FL,69814,United States
East Lauren,AL,92965,United States
DPO AA 93335,Unknown Region,93335,United States
East Blakeshire,NV,52398,United States
Brandonland,UT,49672,United States
New Jacobport,VA,86604,United States
Melissaport,WY,17556,United States
Lake Jonathanmouth,SD,86808,United States
Garciachester,TN,42062,United States
Carolynville,FL,99079,United States
New Deborahville,WY,67548,United States
Janetfurt,MT,58706,United States
Lake Williammouth,MO,02894,United States
Traceyberg,IL,64102,United States
Box 4844,APO,12270,United States
North Jerome,PA,62087,United States
Jamesmouth,KY,90664,United States
Box 2148,APO,56571,United States
Crystalberg,NJ,73410,United States
West Christopher,CT,58935,United States
Gallowayview,MA,98865,United States
New Vanessa,UT,09766,United States
South Kimland,MD,88620,United States
North Deborahville,NV,07057,United States
Valenciafort,KY,89670,United States
Woodburgh,NE,96169,United States
New Jason,WA,06225,United States
East Michelle,UT,05125,United States
Trevinoborough,TN,35133,United States
DPO AE 47126,Unknown Region,47126,United States
FPO AE 21283,Unknown Region,21283,United States
Robertside,OH,50298,United States
New Mariah,ND,29655,United States
Stevensmouth,SD,12938,United States
North Jeffrey,OK,77813,United States
Cassandraborough,MS,55292,United States
Anthonyshire,MS,57910,United States
Cruzport,CT,81412,United States
New Andrew,HI,07236,United States
Longhaven,AR,50046,United States
Lake Michele,WI,35111,United States
DPO AA 64801,Unknown Region,64801,United States
South Michaelmouth,AR,79448,United States
South Jessica,SD,36953,United States
Johnsonborough,IL,61430,United States
Williamsport,IA,81191,United States
Dianemouth,VT,65419,United States
Danchester,KY,59707,United States
East Samuelton,ME,69684,United States
Dawnbury,DE,13856,United States
Debraburgh,IN,35812,United States
East Jordan,CT,14480,United States
Hectormouth,OR,05504,United States
West Steven,WV,42709,United States
New Lorrainemouth,LA,02006,United States
Port Sydneyfort,MN,62709,United States
South Deniseburgh,NH,07966,United States
Port Nathanielton,WI,22353,United States
New Mackenzieside,MA,18941,United States
West Michael,KY,54498,United States
East Paul,WY,09433,United States
North Christopherhaven,NJ,74049,United States
Colemouth,NM,96856,United States
East Brookeshire,DE,58642,United States
North Ericchester,AL,74791,United States
West Andrew,WA,34066,United States
New Chrisberg,OR,09815,United States
Port Maryberg,AK,20751,United States
Chandlerview,LA,73804,United States
Woodsmouth,CA,83627,United States
South Miguel,OK,84841,United States
Port Douglasbury,VT,08878,United States
Jonathanton,ME,63549,United States
Davisfurt,IL,89252,United States
Figueroahaven,VT,65396,United States
East Diana,MD,58988,United States
Port Nicholas,WA,58050,United States
East Jamesside,MN,71259,United States
DPO AP 42334,Unknown Region,42334,United States
Lake Deniseberg,NH,57834,United States
Fitzgeraldstad,DE,29255,United States
Lake Tammychester,MD,97429,United States
South Yolandamouth,AK,33191,United States
Port Christopherton,MS,88577,United States
East Melaniemouth,NH,54932,United States
Loganland,FL,83298,United States
Danielside,WY,31222,United States
Wilsonhaven,IL,77157,United States
Lefurt,VT,89821,United States
South Trevorland,TX,62541,United States
Haleton,MO,34614,United States
Martinezshire,ND,71152,United States
Avilaport,LA,34911,United States
New Williamview,IL,20835,United States
West Sue,SD,07471,United States
Fieldsberg,FL,25577,United States
Jefferyside,AZ,06681,United States
Jenniferport,SD,06244,United States
Lake Robertborough,WY,40101,United States
Jenniferland,MO,44876,United States
West Jameston,UT,11409,United States
DPO AE 84303,Unknown Region,84303,United States
North Denise,MS,70110,United States
Box 9669,APO,07856,United States
Jonstad,KY,27064,United States
North Stephaniestad,WY,85512,United States
Heatherhaven,KS,28515,United States
Gonzalezton,NE,80222,United States
Matthewfort,TN,79782,United States
Charleschester,ME,24923,United States
Hurstton,LA,79150,United States
Josephshire,LA,92974,United States
Marcushaven,AL,66246,United States
New Chris,WY,41237,United States
Wardberg,KY,10102,United States
Dunnborough,CA,36775,United States
Lake Lisa,WA,29441,United States
North Josephland,OR,21752,United States
West Frederick,LA,98404,United States
New Frank,MI,10120,United States
Scottshire,DE,77541,United States
Box 5665,APO,70291,United States
Ashleymouth,MT,95329,United States
Websterstad,WA,29912,United States
FPO AP 30214,Unknown Region,30214,United States
West Meghan,FL,45520,United States
Port Ashley,OK,85622,United States
Tonychester,WY,85739,United States
New Scottport,NH,86025,United States
Jessicaburgh,CT,72599,United States
North Lindsayside,KS,93845,United States
Box 4651,APO,77425,United States
Jonathanside,TN,51055,United States
Lake Jennachester,AK,78550,United States
South Jamieshire,PA,20188,United States
Hatfieldmouth,OK,24384,United States
Jasonhaven,KY,36191,United States
North Natasha,OR,32531,United States
DPO AA 19762,Unknown Region,19762,United States
Connermouth,HI,78839,United States
Stevenport,TX,46119,United States
Lukestad,CA,73466,United States
Oconnorberg,MT,11549,United States
Michaelmouth,AR,38897,United States
Whiteport,OR,39905,United States
Ianview,IN,62080,United States
Danielton,DE,53234,United States
DPO AE 95527,Unknown Region,95527,United States
Jonathanberg,NE,40589,United States
DPO AE 64129,Unknown Region,64129,United States
Johnmouth,VA,24227,United States
Edwardbury,UT,77378,United States
Langport,UT,26655,United States
North Christianside,MA,51679,United States
East Danielton,WI,82486,United States
Lake Terrifort,MS,02556,United States
Box 9477,APO,63197,United States
South Robertburgh,KS,38863,United States
Port Jeffreyland,OH,16677,United States
North Danielleview,DC,80878,United States
New Rachel,ID,19588,United States
Paigeshire,AR,62589,United States
Lambertmouth,MD,63873,United States
Lake Virginiamouth,NE,22423,United States
Samuelside,OK,82625,United States
Melissaside,DE,61680,United States
East Caitlinfort,NM,91873,United States
Port Michael,MT,02068,United States
Scottville,TX,52079,United States
FPO AA 67345,Unknown Region,67345,United States
Oliviashire,KY,64988,United States
Glennshire,IA,98732,United States
Lake Albertmouth,OK,43181,United States
Amyhaven,RI,73971,United States
Box 1114,APO,79749,United States
Port Jocelyn,AZ,78447,United States
DPO AA 78183,Unknown Region,78183,United States
South Brandi,WV,08689,United States
Griffinville,MT,90370,United States
North Jack,TX,82199,United States
Dominguezberg,RI,91850,United States
Jeremyport,ME,37491,United States
Box 8597,APO,42261,United States
East Elizabethfurt,DC,90647,United States
Aprilberg,NM,24438,United States
West Eugene,MA,89073,United States
Parrishburgh,DC,32131,United States
Gordontown,AZ,89661,United States
New Christopher,IN,61015,United States
FPO AE 88345,Unknown Region,88345,United States
DPO AE 43322,Unknown Region,43322,United States
Tylerview,IA,68709,United States
Masseyport,LA,01311,United States
Lanceville,MO,22765,United States
West Kathryn,MN,31469,United States
Douglaston,SD,05787,United States
Port Jennifer,WI,46164,United States
New Heatherview,AK,74137,United States
Port Paulahaven,NE,97942,United States
Charlesberg,IN,86316,United States
Scottville,NY,22347,United States
Williamburgh,MA,39563,United States
West Frank,SC,94584,United States
East Ashley,NC,36411,United States
Michaelview,IN,22102,United States
West Randyside,MN,37575,United States
South Roberthaven,CO,59248,United States
Antonioberg,OR,75306,United States
Geraldside,AZ,45019,United States
New Andrewport,WA,97000,United States
Pattersonview,IN,21657,United States
East Davidhaven,CO,27013,United States
Port Susan,NY,15372,United States
Lake Tinaview,OR,45389,United States
East Cynthia,VT,75868,United States
West Michael,AL,24066,United States
Lake Stacyfurt,KY,91380,United States
Hollandland,MS,55543,United States
Englishstad,RI,02116,United States
North Laurashire,MT,52718,United States
Hernandezside,WV,25761,United States
Carolynville,NC,26152,United States
Williamsmouth,AL,81218,United States
Smithburgh,OK,98136,United States
Brandtview,ND,31945,United States
South Erinfort,AL,93318,United States
West Miranda,AZ,11463,United States
Paulastad,WI,15267,United States
South Andrewside,AR,56590,United States
Jessicaport,NC,51217,United States
New Michael,MS,57209,United States
South Anneview,HI,64161,United States
New Lisaburgh,GA,48953,United States
South Melissafort,KY,34658,United States
Amandaberg,CA,43666,United States
Port Christopherborough,NC,49194,United States
South Dylanhaven,SC,74645,United States
Port Ryan,VT,63944,United States
Port Jessicaland,CO,43191,United States
West Jake,MD,55017,United States
West Alexistown,ND,84673,United States
Dustinview,MO,76379,United States
New Cherylborough,NY,01311,United States
Littlehaven,DC,27384,United States
Brianmouth,SC,99269,United States
Port Francisco,WI,96522,United States
East Carrietown,MO,02672,United States
Sanchezville,CT,70493,United States
New Rubenland,OK,52080,United States
North Debra,MD,46653,United States
Jonesberg,HI,27724,United States
Jeffburgh,AZ,80374,United States
South Melanie,MS,98079,United States
New Larry,OR,14551,United States
Port Johnport,SD,91794,United States
Brownfort,MD,89406,United States
Jacobfort,UT,03082,United States
Kevinland,MN,57528,United States
South Nancy,FL,59379,United States
Trevorport,PA,50412,United States
Coreyburgh,NJ,15278,United States
New Gabriel,RI,89491,United States
West Kimberly,WV,57273,United States
Lake Scott,NY,82053,United States
FPO AE 25205,Unknown Region,25205,United States
Holmesmouth,HI,59016,United States
Alexanderchester,NM,28836,United States
Allenfurt,NJ,30613,United States
West Erikaview,NH,55815,United States
Jacobburgh,MD,88228,United States
Box 1265,APO,74322,United States
East Rebecca,HI,37159,United States
Melissaside,NV,84611,United States
Stevensfort,UT,80330,United States
Tiffanybury,TN,59266,United States
Box 2986,APO,48572,United States
Briannaville,NV,13179,United States
East Paigeshire,WI,94004,United States
East Angelafort,NV,93500,United States
Port Jay,RI,65385,United States
DPO AA 46880,Unknown Region,46880,United States
West Andrea,IA,79293,United States
Port Jeremy,PA,04446,United States
DPO AA 88613,Unknown Region,88613,United States
Kennethhaven,CA,43170,United States
Box 7129,APO,61082,United States
New Kathryn,SD,81051,United States
Rogersberg,TN,08293,United States
South Kevinton,OR,91704,United States
Murrayshire,KS,80009,United States
Tracyborough,DE,21847,United States
Lake Kennethchester,ID,26528,United States
East Rickyview,DE,02460,United States
Hickstown,CO,32287,United States
West Garrett,LA,47903,United States
Bullockberg,FL,33665,United States
West Ruth,NH,25011,United States
Lake Seanberg,SC,61793,United States
FPO AP 81169,Unknown Region,81169,United States
DPO AP 01076,Unknown Region,01076,United States
Port Brenda,MN,85131,United States
Port Philip,VA,61433,United States
West John,CA,82559,United States
Kristinaport,NC,49213,United States
Osbornefort,DC,46357,United States
Smithside,WI,66250,United States
FPO AP 95717,Unknown Region,95717,United States
Griffinland,ND,17359,United States
Box 5058,APO,09983,United States
DPO AP 95766,Unknown Region,95766,United States
FPO AE 06661,Unknown Region,06661,United States
East Jill,IA,96577,United States
Tonytown,ID,56747,United States
Angelaburgh,NM,65968,United States
Phillipsfurt,WI,93765,United States
Davisfurt,NM,03633,United States
East Wandaland,VA,35104,United States
West Jamie,AR,53750,United States
Box 4701,APO,32831,United States
Garciaside,NM,34878,United States
Seanshire,NC,30024,United States
North Donna,SC,09258,United States
DPO AP 96758,Unknown Region,96758,United States
Ochoaburgh,HI,02844,United States
West Brendaville,NV,78750,United States
Craigfurt,KY,94790,United States
West Sarah,WV,85007,United States
North Carrie,WV,92462,United States
Jordanbury,NV,06471,United States
Williamsburgh,NE,12734,United States
South Peggy,MI,93354,United States
South Brendaton,AR,52290,United States
Port Timothy,IA,91847,United States
New Johnport,ME,07426,United States
Port Brendafort,ME,04724,United States
Stevefort,IN,13127,United States
Clarkhaven,VT,41135,United States
Oliviamouth,CO,76234,United States
Lindsayfort,NJ,52017,United States
FPO AE 80364,Unknown Region,80364,United States
Port Edward,SD,79037,United States
West Cheryl,MA,67481,United States
South Courtneyton,MT,10053,United States
Cathyside,LA,60991,United States
Angelaburgh,OR,72412,United States
Steelebury,DE,88252,United States
East Justinton,IN,21981,United States
Bellmouth,AR,69457,United States
Wardfort,SC,10774,United States
Dustinberg,AZ,65433,United States
West Louisshire,TN,61443,United States
Lake Charles,SD,82332,United States
South David,NY,70516,United States
Box 7441,APO,90417,United States
Smithtown,MS,89162,United States
Lake George,WY,07252,United States
Port Moniquetown,MO,39546,United States
East Amandabury,OR,91384,United States
New Walter,MS,27997,United States
Wufort,NM,79502,United States
Ramirezstad,GA,19498,United States
Johnsonhaven,NC,97892,United States
New Lynnfort,MT,27116,United States
Mooreburgh,KS,02648,United States
Lake Zachary,OK,43288,United States
West Kennethton,NY,48850,United States
East Paulstad,AK,39379,United States
DPO AP 24695,Unknown Region,24695,United States
Vanessastad,FL,03245,United States
Williamsport,DE,61254,United States
East Brenda,OH,66074,United States
FPO AE 74511,Unknown Region,74511,United States
Andersontown,MN,61650,United States
South Joannbury,WI,52421,United States
North Mark,NH,12093,United States
Port Pamela,MD,23020,United States
West Dennisberg,IA,24869,United States
North Charles,MA,11735,United States
Joshuaview,OK,70189,United States
Port Caitlin,GA,43050,United States
Thompsonstad,IA,86554,United States
Lake Williammouth,MS,60947,United States
Port Samuel,TX,48245,United States
Elizabethmouth,MN,11404,United States
Castromouth,WI,81385,United States
Justinborough,NV,18096,United States
Stevenmouth,TN,53166,United States
Morrisfort,NH,03816,United States
West Lisamouth,NH,61351,United States
Mccarthyburgh,SD,02255,United States
Glennport,OR,31719,United States
FPO AE 08738,Unknown Region,08738,United States
Moralesport,OR,89597,United States
Port Dianashire,UT,53798,United States
Tracyside,NC,88964,United States
East Jacquelineburgh,ME,29337,United States
Jasonshire,SD,67509,United States
Michaelmouth,DC,46346,United States
Jessicaberg,WI,72390,United States
Lake Andrew,NJ,93980,United States
North Charlene,ME,05739,United States
Thomaschester,NC,64788,United States
Port Monicachester,WA,90284,United States
Dominicmouth,ME,02824,United States
Box 9807,APO,68743,United States
South Brian,LA,18210,United States
North Vincentbury,VT,23962,United States
Isaacshire,WA,84091,United States
Port Melanie,MN,39934,United States
Taylorville,AK,46110,United States
West Natalie,MD,11854,United States
New Jamieview,HI,96685,United States
West Joshua,AK,55756,United States
Brittneyfort,MA,09308,United States
New Jessica,NM,44568,United States
North Kimberlyfurt,CO,94568,United States
Briannamouth,IA,68626,United States
Haileymouth,KS,54557,United States
DPO AA 63550,Unknown Region,63550,United States
Smithland,MD,44415,United States
Hernandeztown,WV,24954,United States
New Matthew,WY,16106,United States
Bakershire,ID,96801,United States
Garciabury,KY,07702,United States
Port Steven,TN,83387,United States
New Monica,AZ,60302,United States
West Cynthiastad,IL,82310,United States
Amandaport,ND,44189,United States
North Curtis,AR,49814,United States
Rhondaview,OH,62452,United States
Johnshire,IN,79892,United States
West Miguelmouth,MN,05539,United States
Box 8983,APO,57051,United States
Port Morganside,VT,02102,United States
Cookfurt,OR,29892,United States
Mcclureside,DC,45097,United States
Lake Elizabeth,DE,61334,United States
Chungtown,NC,21759,United States
Steventon,VA,64300,United States
Port Thomas,CT,22917,United States
South Bryanburgh,AL,58756,United States
Clarkton,KY,77627,United States
Box 8482,APO,75344,United States
Monicaton,MT,37126,United States
Port Meganbury,CO,70991,United States
East Michael,VT,62190,United States
South Jennifer,ID,63395,United States
North Elizabethton,CT,61180,United States
North Arianaton,VA,05508,United States
Kimberlyhaven,NC,31032,United States
Jamestown,LA,35015,United States
FPO AP 33485,Unknown Region,33485,United States
Ralphshire,KY,63953,United States
West Joseph,ID,06662,United States
South Veronicachester,RI,14135,United States
East Williammouth,IA,67041,United States
Port Adam,KY,34030,United States
South Gregory,MO,36495,United States
Williamsberg,WV,45183,United States
Chadtown,NH,30977,United States
Box 9904,APO,63061,United States
Rodriguezport,AZ,63347,United States
Watsonhaven,DE,13913,United States
Georgechester,GA,49507,United States
Harrisside,UT,35650,United States
North Cristina,HI,26005,United States
New Eileenchester,UT,77965,United States
West Samanthaview,GA,61554,United States
Box 7110,APO,79464,United States
New Matthewhaven,NJ,49331,United States
Smithport,KY,25459,United States
Boyermouth,MA,20646,United States
New Luisborough,IN,96876,United States
Williamhaven,OH,51705,United States
New Emily,IL,88692,United States
Juliefort,IA,06362,United States
Kellyville,CO,43232,United States
Floydberg,AL,23371,United States
East Christine,LA,15598,United States
Hicksmouth,NY,54472,United States
Matthewside,VT,40513,United States
FPO AP 01461,Unknown Region,01461,United States
Reginaland,WY,29346,United States
Friedmanfort,WA,16374,United States
Millerview,NM,18094,United States
FPO AA 81892,Unknown Region,81892,United States
Mooretown,CA,73928,United States
Jasonland,AL,59865,United States
North Alexis,AR,94846,United States
New Lorihaven,TX,97948,United States
Christopherborough,LA,12305,United States
Lake Michael,DC,68435,United States
Franciscoport,DE,83484,United States
West Brandon,AL,24661,United States
Melissafort,VA,40147,United States
Acostamouth,CO,19336,United States
FPO AP 98695,Unknown Region,98695,United States
New Thomastown,HI,08231,United States
New Donna,VA,89717,United States
Coleland,VT,23101,United States
West Mike,ND,67067,United States
Osborneville,AK,88222,United States
Obrienville,MI,09460,United States
Calderonstad,OH,12396,United States
Kevinbury,CO,96559,United States
West Shannon,GA,07193,United States
South Stephanie,NE,90213,United States
Freemanfurt,FL,40374,United States
New Jill,CT,44175,United States
North Hannahland,CT,18953,United States
Allisonmouth,KS,25490,United States
Thompsonfort,AZ,49647,United States
Ronaldfurt,AZ,13357,United States
West Brianmouth,AZ,53752,United States
Huffmantown,DC,46530,United States
West Yvonne,ID,06536,United States
North Brian,CA,09941,United States
FPO AP 35684,Unknown Region,35684,United States
Lake Vincentberg,AZ,51108,United States
East Alexander,LA,13741,United States
South Ann,WY,08847,United States
Adamston,SC,07028,United States
Michaelfort,PA,42952,United States
DPO AA 39720,Unknown Region,39720,United States
Dennisstad,MT,11762,United States
DPO AE 32301,Unknown Region,32301,United States
New Adrianfort,KS,10699,United States
West Davidmouth,NY,80986,United States
Cartertown,RI,15975,United States
Bentleyside,MI,49974,United States
Danielfurt,NM,28503,United States
Jonathanchester,IA,01773,United States
East Francisco,TN,65941,United States
West Betty,WA,80118,United States
Millerview,DC,97497,United States
North Aprilton,ID,44049,United States
Samanthashire,CT,44791,United States
Joeport,HI,40692,United States
Rebeccashire,CT,04265,United States
Lake Pedro,LA,59675,United States
Aaronchester,UT,20074,United States
Lisaville,OH,98442,United States
Millerton,MO,26862,United States
Marcusborough,RI,33149,United States
Catherineborough,KS,48660,United States
Jessicaton,AL,22872,United States
Sullivanchester,TX,69438,United States
Jasminebury,AK,98186,United States
Box 9822,APO,90514,United States
North Brendafurt,UT,71205,United States
Mirandaland,WY,46522,United States
Foxshire,SC,99787,United States
Richardville,MI,71912,United States
Port Anthony,DE,47792,United States
Lake Andrewtown,TX,71797,United States
Hubbardmouth,TX,44733,United States
Lake Barrybury,MT,82092,United States
Bradleybury,KY,86194,United States
South Jennifer,VT,65982,United States
Danielshire,ME,45027,United States
Port Brittany,AL,03456,United States
Christopherview,OH,49445,United States
Box 3600,APO,48720,United States
Melissashire,OK,50489,United States
Box 8590,APO,93662,United States
South Jefferytown,ID,45483,United States
North Jamesmouth,UT,15074,United States
Campbellton,VT,74515,United States
Turnerside,CO,44726,United States
Richardshire,NM,61550,United States
Box 5786,APO,92873,United States
East Marcusville,AZ,83006,United States
Devinland,MO,74605,United States
East Stacey,SC,77583,United States
Sarahland,OK,89867,United States
North Heather,FL,61384,United States
DPO AE 44370,Unknown Region,44370,United States
Matthewsfort,AZ,18423,United States
Rodriguezport,CA,44018,United States
New Markland,IL,77790,United States
DPO AP 87138,Unknown Region,87138,United States
Justinchester,OR,06297,United States
West Lisaland,UT,65720,United States
Pamelamouth,AK,63556,United States
North Hollyshire,AL,80134,United States
West Debrafort,MD,39179,United States
Cardenashaven,CO,07849,United States
Sethton,AZ,50616,United States
Box 1283,APO,30550,United States
East Brianside,SD,90719,United States
Elizabethfurt,CT,19078,United States
North Joseph,AZ,10194,United States
Roberttown,VA,32955,United States
Christophermouth,PA,69723,United States
FPO AP 79831,Unknown Region,79831,United States
Box 7107,APO,55698,United States
New Denise,GA,18186,United States
Port Dennis,WA,60448,United States
Port Joseph,VA,26307,United States
Jenniferfort,WA,56135,United States
Laneberg,MS,44135,United States
Douglasburgh,ND,56298,United States
Nathanchester,CO,55337,United States
Lake Christopherton,NC,80716,United States
Lake Lindafort,WI,64729,United States
Avilatown,SD,35449,United States
Kevinville,KS,46907,United States
East John,KS,72196,United States
North Joseph,HI,89530,United States
Angelaport,WA,76617,United States
East Barbaraview,VT,44733,United States
West Bonnietown,IL,26369,United States
Lake Frank,MT,76090,United States
East Craigberg,AZ,13377,United States
Lorimouth,VA,83952,United States
South Kim,TN,72163,United States
Davischester,NE,03513,United States
South Autumnhaven,MN,40470,United States
Williammouth,KY,76995,United States
South Jademouth,NM,77300,United States
Simmonsberg,VT,64056,United States
Hardyhaven,FL,93351,United States
West Rodney,DE,89351,United States
New Matthew,IA,94458,United States
Wilsonfort,AK,78638,United States
Saunderston,LA,41962,United States
New Micheleberg,DE,77114,United States
Tapiaborough,NH,99599,United States
East David,NY,47340,United States
Chaneyville,VT,99436,United States
North Shannon,AL,67369,United States
Port Ronald,PA,99664,United States
Port Stephen,WA,75263,United States
Charlesfort,AL,89706,United States
West James,HI,70382,United States
Dunnfurt,OH,78159,United States
Wellsfort,UT,21377,United States
East Frederickchester,WV,78144,United States
Johnsonshire,ND,84361,United States
North Michaelton,AL,14303,United States
West Keithview,DC,18560,United States
Rayshire,OR,91449,United States
FPO AE 46712,Unknown Region,46712,United States
Richardborough,CO,76031,United States
Holderhaven,AR,91475,United States
New Brookeside,MI,77312,United States
Vazquezfort,IA,63367,United States
Jonathanmouth,NE,16726,United States
Smithshire,WI,92610,United States
Angelatown,MT,94851,United States
Hallport,AK,88414,United States
West Nicolehaven,CA,97607,United States
North Leestad,NY,32561,United States
Teresaport,IL,79235,United States
Erictown,NM,41950,United States
West Patrick,IN,54882,United States
Portermouth,MN,75254,United States
South Lynn,MN,49561,United States
Port Johnnyville,OK,39963,United States
Sarahmouth,CA,82021,United States
West Ian,OR,82360,United States
Bradstad,NY,47000,United States
Jonborough,NM,07896,United States
Brownville,IN,35799,United States
Port Amy,MT,08630,United States
FPO AE 03999,Unknown Region,03999,United States
Carlaport,NE,92923,United States
Charlesmouth,ID,70718,United States
South Kennethfort,AZ,58885,United States
West Donna,WV,14988,United States
FPO AA 97291,Unknown Region,97291,United States
Box 3919,APO,81379,United States
Herrerafort,OK,21154,United States
Martinezfort,CO,97973,United States
Kellyburgh,PA,61794,United States
Kellyside,NJ,21496,United States
DPO AP 52696,Unknown Region,52696,United States
Wendyborough,MI,46547,United States
Joycebury,MO,04506,United States
Laurenton,AZ,79470,United States
North Davidbury,NY,92174,United States
New Timothyport,MI,22727,United States
West Jacquelineberg,RI,31995,United States
West Sandra,HI,89584,United States
South James,DC,65342,United States
Laneshire,AK,19510,United States
Garciabury,WI,59402,United States
Watsonbury,ME,53694,United States
FPO AE 48444,Unknown Region,48444,United States
South Richard,MD,80795,United States
Grantberg,HI,23675,United States
Keithfort,MN,33684,United States
Daniellemouth,VT,52455,United States
Leslieview,AL,04974,United States
Zimmermanmouth,NC,96353,United States
Box 4613,APO,59868,United States
South Jessicafurt,IN,17232,United States
Angelaland,AK,41344,United States
Lake Christina,MD,04856,United States
Raymondstad,CO,84598,United States
East Davidchester,LA,36233,United States
Heatherburgh,MA,34153,United States
New Shannonberg,MI,44987,United States
FPO AP 80761,Unknown Region,80761,United States
New Anthony,NY,42520,United States
Port Lisa,OK,04607,United States
Garnerfurt,WI,57087,United States
DPO AA 63696,Unknown Region,63696,United States
New Gabrielleside,ME,77359,United States
Richardfurt,OH,24503,United States
Mullinsville,KS,94722,United States
East Ryanview,NV,51907,United States
Port Markview,PA,70830,United States
North Megan,PA,15196,United States
Port Louisburgh,MT,16204,United States
Jasonbury,SC,88577,United States
Port April,VA,67327,United States
Lake Traceyberg,KS,86575,United States
West Jenniferbury,NC,33119,United States
South Kathy,MT,35604,United States
Camposburgh,NE,23164,United States
Lucasland,SC,91988,United States
South Brettside,MS,93256,United States
Robertfurt,AZ,14252,United States
West Adammouth,NV,45445,United States
South Emilychester,MI,77697,United States
Hernandezview,MI,18688,United States
Port Angelaberg,RI,65409,United States
Timothyberg,MO,40620,United States
West Ronald,CO,70063,United States
Brownside,WV,69294,United States
West Lisa,TN,31897,United States
New Erikstad,AZ,50715,United States
Grossstad,KS,69613,United States
Reeseton,NJ,69179,United States
FPO AA 18076,Unknown Region,18076,United States
Philipland,ID,27762,United States
Port Jill,MS,42924,United States
West Paulland,CT,25843,United States
East Christinamouth,WV,02777,United States
Martinberg,AL,06224,United States
South Tina,OH,46120,United States
Christianborough,OH,95532,United States
West Randyfurt,CT,29368,United States
South Katie,TX,78633,United States
Ronaldmouth,IN,69615,United States
Anthonybury,WA,40129,United States
East Nicholeview,SC,75758,United States
North Davidland,AR,68300,United States
Whiteburgh,CA,51758,United States
East Larryside,SD,34123,United States
Ginashire,PA,05339,United States
Box 7269,APO,53572,United States
Jamesstad,IL,54819,United States
North Isabelburgh,KY,61531,United States
Lake Cherylview,WI,67546,United States
West Patrick,OH,16104,United States
Floresberg,KY,07537,United States
Lake Kevinhaven,MI,84165,United States
East Davidville,SC,07764,United States
Marquezchester,MD,86188,United States
Kevinchester,ID,40625,United States
Richardview,CT,25930,United States
Cameronstad,MI,68266,United States
Jeannechester,NJ,95807,United States
Madelineberg,AR,55782,United States
FPO AA 85244,Unknown Region,85244,United States
East Katherine,RI,59792,United States
East Harry,TX,39575,United States
Lorettaside,ME,02873,United States
Kimberlyberg,DC,21290,United States
North Michael,VT,66431,United States
New Shawnstad,IA,11702,United States
East Derek,CA,44149,United States
Hallfort,WV,12918,United States
East Joeview,NE,67900,United States
East Jasonborough,CT,24925,United States
Port Jeffreychester,KS,40421,United States
North Loriview,DC,88203,United States
Anthonybury,NY,80133,United States
Levybury,DC,00508,United States
Davidchester,ME,06534,United States
Hectorshire,IL,29606,United States
Davidhaven,RI,42995,United States
DPO AP 48219,Unknown Region,48219,United States
North Stephanieton,TX,66004,United States
Robertmouth,PA,19180,United States
Lake Mollymouth,IL,15738,United States
New Stephen,CO,52547,United States
Maldonadoton,KS,36030,United States
Kennethside,HI,58817,United States
Willistown,UT,57404,United States
North Melissaview,OH,99507,United States
Douglasmouth,AZ,16041,United States
East Timothyview,VA,11069,United States
Box 5688,APO,11303,United States
Wagnermouth,UT,24483,United States
Nicholasside,TX,21235,United States
Brownburgh,VT,67328,United States
Port Lindaborough,AR,26294,United States
Port Michelle,CO,24403,United States
Box 4217,APO,30872,United States
Bookerview,MT,71030,United States
Rebeccaview,CA,27922,United States
DPO AP 08931,Unknown Region,08931,United States
South Cherylville,IL,72561,United States
Lake Sarah,PA,30926,United States
Jamieport,NV,54136,United States
Jamiefort,DC,20239,United States
Schmittshire,KY,01633,United States
West Matthew,MA,97113,United States
North Roger,PA,45585,United States
South Angelicaside,FL,06446,United States
Michaelland,KS,23819,United States
East Derekton,NM,48557,United States
Box 1307,APO,75738,United States
Lake Patriciachester,IN,77453,United States
Mercerside,NH,38209,United States
Joeburgh,MI,42665,United States
Zimmermanmouth,ND,84986,United States
West Michael,SC,12045,United States
Box 1193,APO,21002,United States
DPO AP 86059,Unknown Region,86059,United States
East Madeline,MA,54331,United States
Bennetthaven,MT,91337,United States
Lindaborough,WY,39179,United States
Howardland,IL,89610,United States
Box 8825,APO,94419,United States
Mercadoborough,NE,75161,United States
Jerryport,KY,30580,United States
Lake Toddton,CT,54286,United States
Jessicahaven,LA,08310,United States
South Angela,IN,11881,United States
Fergusonton,AR,91718,United States
West Lindseyside,WA,52332,United States
Johnfort,TN,75374,United States
Lake Thomas,AK,57387,United States
New Tanner,UT,79757,United States
Port William,SC,34230,United States
South Juan,IL,84346,United States
Port Josephchester,MI,86707,United States
New Kaylabury,TX,67938,United States
Abigailmouth,AZ,69349,United States
Thomasmouth,NC,58735,United States
Reynoldsstad,NY,96146,United States
Clarkton,KS,13656,United States
Richardsborough,NE,04551,United States
Smithside,NV,60919,United States
South Lisa,NC,22411,United States
East Nathanmouth,AL,82294,United States
North Debraberg,DE,13744,United States
North Edwardshire,OR,57727,United States
FPO AA 81958,Unknown Region,81958,United States
South Patriciaberg,AL,50249,United States
North Brandon,MN,71649,United States
DPO AA 13100,Unknown Region,13100,United States
Waltonburgh,MO,54967,United States
Jesusmouth,VT,63991,United States
Clarkburgh,MI,57447,United States
North Johnmouth,AL,89976,United States
Amymouth,FL,64959,United States
West Stephenchester,OH,58503,United States
Lake Melanie,IA,38815,United States
Dudleychester,NY,12777,United States
East Stevenland,MI,05180,United States
FPO AA 00691,Unknown Region,00691,United States
Port Shawn,ND,65299,United States
Box 4794,APO,56166,United States
Johnton,UT,59841,United States
East Mark,WV,70016,United States
West Brenda,MN,06926,United States
West Cynthia,MA,40637,United States
Savannahfurt,MN,01819,United States
East Bradleytown,MO,88518,United States
Lake Lauraview,AR,87773,United States
FPO AP 86794,Unknown Region,86794,United States
West William,MA,97945,United States
Lake Andrew,AK,14575,United States
Burtonland,PA,36304,United States
Box 8582,APO,71313,United States
Brownmouth,AZ,35804,United States
Mccoyview,RI,05630,United States
West Rebeccaland,LA,70680,United States
Turnerchester,NC,33510,United States
South Matthewport,TX,54151,United States
North Anne,KY,07108,United States
DPO AP 35623,Unknown Region,35623,United States
South Terrifurt,LA,03191,United States
Lake Anthony,IN,21128,United States
Lake Kimberly,NC,04919,United States
Lake Melissa,WI,48282,United States
East Daniel,RI,20337,United States
New Dylan,PA,72913,United States
Lake Ryanfort,MN,96277,United States
North Holly,IA,77714,United States
Box 6462,APO,92329,United States
West Kimberlytown,WI,49111,United States
Cranestad,AL,40087,United States
Paulaland,AZ,07670,United States
Darinstad,TX,47979,United States
Lake Elizabethshire,AR,01846,United States
Greenburgh,RI,15264,United States
Box 7543,APO,79130,United States
West Susanview,TX,04776,United States
Simmonsborough,NV,78530,United States
Wilsonview,OH,43639,United States
Port Julie,MD,60739,United States
East Brittneyport,WA,01078,United States
FPO AA 39470,Unknown Region,39470,United States
Robinsonville,KY,51898,United States
Lake Rebecca,TX,23773,United States
Loveshire,OH,42886,United States
Port Glenn,CT,18081,United States
New Kevinborough,MO,92030,United States
East Jacob,NE,62062,United States
Krauseberg,NH,69519,United States
Box 3612,APO,88178,United States
Lake Caitlin,WI,73237,United States
Gabriellebury,PA,93861,United States
Kirkfurt,OR,41907,United States
West Sarahaven,WI,04913,United States
Graceland,MT,36088,United States
South Robertfurt,AL,62726,United States
DPO AE 95839,Unknown Region,95839,United States
Carrollmouth,KY,45364,United States
North Christopherside,PA,72492,United States
Derekton,TN,16636,United States
Porterborough,RI,53649,United States
South James,MN,52904,United States
South David,MI,57153,United States
Amyborough,IL,81741,United States
Jamesmouth,IN,13531,United States
Maddenport,MD,43946,United States
Timothybury,OK,06883,United States
New Patriciaton,CA,07286,United States
Johnsonland,MS,87383,United States
Ronaldshire,GA,63749,United States
Robinsonside,VT,77166,United States
Lake Matthew,SC,38251,United States
